<?xml version="1.0" encoding="UTF-8"?>
<gpx version="1.1" creator="Haus Meli Split" xmlns="http://www.topografix.com/GPX/1/1">
  <metadata><name>Abzweigung Mittagkopf → Mittagkopf-Gipfel</name></metadata>
  <trk><name>Abzweigung Mittagkopf → Mittagkopf-Gipfel</name><trkseg>
      <trkpt lat="47.0501490" lon="10.3859770"><ele>2072.3</ele></trkpt>
      <trkpt lat="47.0500450" lon="10.3859720"><ele>2075.6</ele></trkpt>
      <trkpt lat="47.0499230" lon="10.3863910"><ele>2085.4</ele></trkpt>
      <trkpt lat="47.0499300" lon="10.3867240"><ele>2092.7</ele></trkpt>
      <trkpt lat="47.0498480" lon="10.3866700"><ele>2095.5</ele></trkpt>
      <trkpt lat="47.0498080" lon="10.3868790"><ele>2100.2</ele></trkpt>
      <trkpt lat="47.0497610" lon="10.3868510"><ele>2101.9</ele></trkpt>
      <trkpt lat="47.0497650" lon="10.3869770"><ele>2104.6</ele></trkpt>
      <trkpt lat="47.0496510" lon="10.3869490"><ele>2108.3</ele></trkpt>
      <trkpt lat="47.0496740" lon="10.3870800"><ele>2111.2</ele></trkpt>
      <trkpt lat="47.0496220" lon="10.3873860"><ele>2118.0</ele></trkpt>
      <trkpt lat="47.0495840" lon="10.3874410"><ele>2119.7</ele></trkpt>
      <trkpt lat="47.0495950" lon="10.3874930"><ele>2120.9</ele></trkpt>
      <trkpt lat="47.0495350" lon="10.3876050"><ele>2124.0</ele></trkpt>
      <trkpt lat="47.0494540" lon="10.3876350"><ele>2126.8</ele></trkpt>
      <trkpt lat="47.0493760" lon="10.3877360"><ele>2130.2</ele></trkpt>
      <trkpt lat="47.0493590" lon="10.3881050"><ele>2138.6</ele></trkpt>
      <trkpt lat="47.0493180" lon="10.3882170"><ele>2141.4</ele></trkpt>
      <trkpt lat="47.0493410" lon="10.3883400"><ele>2144.3</ele></trkpt>
      <trkpt lat="47.0492450" lon="10.3887270"><ele>2153.6</ele></trkpt>
      <trkpt lat="47.0492470" lon="10.3891500"><ele>2163.1</ele></trkpt>
      <trkpt lat="47.0492270" lon="10.3893170"><ele>2166.9</ele></trkpt>
      <trkpt lat="47.0492680" lon="10.3895540"><ele>2172.4</ele></trkpt>
      <trkpt lat="47.0492660" lon="10.3897100"><ele>2175.9</ele></trkpt>
      <trkpt lat="47.0493070" lon="10.3898510"><ele>2179.4</ele></trkpt>
      <trkpt lat="47.0493220" lon="10.3900210"><ele>2182.9</ele></trkpt>
      <trkpt lat="47.0493660" lon="10.3901240"><ele>2184.3</ele></trkpt>
      <trkpt lat="47.0493570" lon="10.3902920"><ele>2186.3</ele></trkpt>
      <trkpt lat="47.0492650" lon="10.3909340"><ele>2193.9</ele></trkpt>
      <trkpt lat="47.0492600" lon="10.3909640"><ele>2194.2</ele></trkpt>
      <trkpt lat="47.0492340" lon="10.3909700"><ele>2194.7</ele></trkpt>
      <trkpt lat="47.0492040" lon="10.3911390"><ele>2196.7</ele></trkpt>
      <trkpt lat="47.0491020" lon="10.3914120"><ele>2200.3</ele></trkpt>
      <trkpt lat="47.0491020" lon="10.3915060"><ele>2201.4</ele></trkpt>
      <trkpt lat="47.0492690" lon="10.3921690"><ele>2209.6</ele></trkpt>
      <trkpt lat="47.0493290" lon="10.3924030"><ele>2212.5</ele></trkpt>
      <trkpt lat="47.0494710" lon="10.3927060"><ele>2212.8</ele></trkpt>
      <trkpt lat="47.0496030" lon="10.3930750"><ele>2212.3</ele></trkpt>
      <trkpt lat="47.0497810" lon="10.3931400"><ele>2212.0</ele></trkpt>
      <trkpt lat="47.0502550" lon="10.3930730"><ele>2211.1</ele></trkpt>
      <trkpt lat="47.0504390" lon="10.3932520"><ele>2210.7</ele></trkpt>
      <trkpt lat="47.0504800" lon="10.3934450"><ele>2210.5</ele></trkpt>
      <trkpt lat="47.0504730" lon="10.3935530"><ele>2210.3</ele></trkpt>
      <trkpt lat="47.0504920" lon="10.3936330"><ele>2210.2</ele></trkpt>
      <trkpt lat="47.0505430" lon="10.3936850"><ele>2210.1</ele></trkpt>
      <trkpt lat="47.0509900" lon="10.3937130"><ele>2208.8</ele></trkpt>
      <trkpt lat="47.0511770" lon="10.3938180"><ele>2208.2</ele></trkpt>
      <trkpt lat="47.0513750" lon="10.3940020"><ele>2207.5</ele></trkpt>
      <trkpt lat="47.0514400" lon="10.3941450"><ele>2207.1</ele></trkpt>
      <trkpt lat="47.0517650" lon="10.3944400"><ele>2205.9</ele></trkpt>
      <trkpt lat="47.0518990" lon="10.3945240"><ele>2205.4</ele></trkpt>
      <trkpt lat="47.0520190" lon="10.3946790"><ele>2204.9</ele></trkpt>
      <trkpt lat="47.0522440" lon="10.3948610"><ele>2204.4</ele></trkpt>
  </trkseg></trk>
</gpx>