<?xml version="1.0" encoding="UTF-8"?>
<gpx version="1.1" creator="Haus Meli Split" xmlns="http://www.topografix.com/GPX/1/1">
  <metadata><name>Diasbahn Talstation -> Haus Meli</name></metadata>
  <trk><name>Diasbahn Talstation -> Haus Meli</name><trkseg>
      <trkpt lat="47.0602560" lon="10.3745330"><ele>1174.1</ele></trkpt>
      <trkpt lat="47.0603100" lon="10.3746280"><ele>1174.2</ele></trkpt>
      <trkpt lat="47.0605460" lon="10.3750340"><ele>1174.5</ele></trkpt>
      <trkpt lat="47.0605940" lon="10.3751300"><ele>1174.5</ele></trkpt>
      <trkpt lat="47.0609340" lon="10.3759540"><ele>1175.0</ele></trkpt>
      <trkpt lat="47.0611360" lon="10.3757660"><ele>1176.2</ele></trkpt>
      <trkpt lat="47.0611580" lon="10.3756750"><ele>1176.8</ele></trkpt>
      <trkpt lat="47.0611650" lon="10.3754060"><ele>1178.5</ele></trkpt>
      <trkpt lat="47.0611330" lon="10.3751220"><ele>1180.4</ele></trkpt>
      <trkpt lat="47.0608870" lon="10.3746030"><ele>1184.5</ele></trkpt>
      <trkpt lat="47.0608540" lon="10.3744270"><ele>1185.7</ele></trkpt>
      <trkpt lat="47.0608950" lon="10.3742990"><ele>1186.6</ele></trkpt>
      <trkpt lat="47.0610660" lon="10.3741350"><ele>1188.6</ele></trkpt>
      <trkpt lat="47.0612680" lon="10.3741090"><ele>1190.5</ele></trkpt>
      <trkpt lat="47.0613250" lon="10.3740440"><ele>1191.2</ele></trkpt>
      <trkpt lat="47.0613560" lon="10.3738000"><ele>1193.2</ele></trkpt>
      <trkpt lat="47.0613160" lon="10.3733570"><ele>1197.9</ele></trkpt>
      <trkpt lat="47.0612280" lon="10.3729280"><ele>1202.6</ele></trkpt>
      <trkpt lat="47.0612440" lon="10.3729150"><ele>1202.9</ele></trkpt>
      <trkpt lat="47.0613210" lon="10.3729740"><ele>1204.3</ele></trkpt>
      <trkpt lat="47.0617790" lon="10.3734160"><ele>1212.8</ele></trkpt>
      <trkpt lat="47.0617450" lon="10.3731780"><ele>1215.3</ele></trkpt>
      <trkpt lat="47.0617890" lon="10.3730440"><ele>1216.9</ele></trkpt>
      <trkpt lat="47.0618820" lon="10.3729550"><ele>1218.6</ele></trkpt>
      <trkpt lat="47.0619220" lon="10.3729820"><ele>1219.3</ele></trkpt>
      <trkpt lat="47.0620660" lon="10.3733110"><ele>1222.8</ele></trkpt>
      <trkpt lat="47.0621120" lon="10.3733550"><ele>1223.5</ele></trkpt>
      <trkpt lat="47.0621270" lon="10.3735420"><ele>1225.1</ele></trkpt>
      <trkpt lat="47.0621980" lon="10.3742880"><ele>1231.5</ele></trkpt>
      <trkpt lat="47.0622800" lon="10.3746450"><ele>1234.8</ele></trkpt>
      <trkpt lat="47.0624400" lon="10.3748950"><ele>1237.7</ele></trkpt>
      <trkpt lat="47.0624890" lon="10.3749720"><ele>1238.6</ele></trkpt>
      <trkpt lat="47.0626300" lon="10.3750960"><ele>1240.6</ele></trkpt>
      <trkpt lat="47.0628690" lon="10.3753050"><ele>1243.7</ele></trkpt>
      <trkpt lat="47.0629140" lon="10.3753050"><ele>1244.1</ele></trkpt>
      <trkpt lat="47.0630810" lon="10.3752810"><ele>1245.7</ele></trkpt>
      <trkpt lat="47.0630890" lon="10.3751520"><ele>1246.5</ele></trkpt>
      <trkpt lat="47.0631420" lon="10.3752500"><ele>1247.3</ele></trkpt>
      <trkpt lat="47.0631750" lon="10.3752680"><ele>1247.6</ele></trkpt>
      <trkpt lat="47.0632620" lon="10.3756340"><ele>1250.0</ele></trkpt>
      <trkpt lat="47.0632850" lon="10.3758470"><ele>1251.3</ele></trkpt>
      <trkpt lat="47.0633100" lon="10.3759320"><ele>1251.9</ele></trkpt>
      <trkpt lat="47.0633960" lon="10.3760000"><ele>1252.8</ele></trkpt>
      <trkpt lat="47.0635770" lon="10.3760120"><ele>1254.5</ele></trkpt>
      <trkpt lat="47.0640360" lon="10.3760050"><ele>1258.6</ele></trkpt>
      <trkpt lat="47.0646630" lon="10.3760720"><ele>1258.6</ele></trkpt>
      <trkpt lat="47.0647440" lon="10.3761220"><ele>1258.5</ele></trkpt>
      <trkpt lat="47.0647790" lon="10.3762000"><ele>1258.4</ele></trkpt>
      <trkpt lat="47.0648010" lon="10.3763220"><ele>1258.4</ele></trkpt>
      <trkpt lat="47.0646020" lon="10.3774510"><ele>1257.7</ele></trkpt>
      <trkpt lat="47.0644380" lon="10.3778740"><ele>1257.2</ele></trkpt>
      <trkpt lat="47.0642320" lon="10.3784030"><ele>1256.4</ele></trkpt>
      <trkpt lat="47.0642110" lon="10.3786050"><ele>1256.1</ele></trkpt>
      <trkpt lat="47.0642280" lon="10.3788700"><ele>1255.7</ele></trkpt>
      <trkpt lat="47.0643170" lon="10.3789890"><ele>1255.4</ele></trkpt>
      <trkpt lat="47.0643400" lon="10.3790860"><ele>1255.3</ele></trkpt>
      <trkpt lat="47.0644270" lon="10.3790990"><ele>1255.1</ele></trkpt>
      <trkpt lat="47.0644790" lon="10.3791580"><ele>1255.0</ele></trkpt>
      <trkpt lat="47.0645000" lon="10.3792230"><ele>1254.9</ele></trkpt>
      <trkpt lat="47.0645060" lon="10.3794460"><ele>1254.6</ele></trkpt>
      <trkpt lat="47.0644930" lon="10.3798830"><ele>1254.0</ele></trkpt>
      <trkpt lat="47.0645230" lon="10.3801250"><ele>1253.3</ele></trkpt>
      <trkpt lat="47.0647580" lon="10.3808950"><ele>1250.2</ele></trkpt>
      <trkpt lat="47.0648480" lon="10.3810800"><ele>1249.3</ele></trkpt>
      <trkpt lat="47.0649160" lon="10.3815170"><ele>1247.7</ele></trkpt>
      <trkpt lat="47.0649570" lon="10.3817180"><ele>1246.9</ele></trkpt>
      <trkpt lat="47.0653520" lon="10.3830030"><ele>1242.4</ele></trkpt>
      <trkpt lat="47.0660880" lon="10.3858380"><ele>1235.5</ele></trkpt>
      <trkpt lat="47.0661670" lon="10.3859160"><ele>1235.2</ele></trkpt>
      <trkpt lat="47.0663770" lon="10.3860150"><ele>1234.7</ele></trkpt>
      <trkpt lat="47.0664350" lon="10.3861680"><ele>1234.4</ele></trkpt>
      <trkpt lat="47.0664530" lon="10.3866340"><ele>1233.6</ele></trkpt>
      <trkpt lat="47.0664150" lon="10.3870750"><ele>1232.8</ele></trkpt>
      <trkpt lat="47.0664120" lon="10.3872350"><ele>1232.5</ele></trkpt>
      <trkpt lat="47.0666750" lon="10.3878400"><ele>1231.5</ele></trkpt>
      <trkpt lat="47.0669520" lon="10.3884820"><ele>1230.4</ele></trkpt>
      <trkpt lat="47.0670830" lon="10.3889470"><ele>1229.6</ele></trkpt>
      <trkpt lat="47.0677350" lon="10.3895330"><ele>1228.1</ele></trkpt>
      <trkpt lat="47.0678290" lon="10.3896750"><ele>1227.8</ele></trkpt>
      <trkpt lat="47.0680220" lon="10.3900840"><ele>1227.2</ele></trkpt>
      <trkpt lat="47.0681130" lon="10.3903580"><ele>1226.8</ele></trkpt>
      <trkpt lat="47.0681700" lon="10.3908150"><ele>1226.2</ele></trkpt>
      <trkpt lat="47.0682610" lon="10.3910450"><ele>1225.8</ele></trkpt>
      <trkpt lat="47.0683880" lon="10.3916580"><ele>1224.3</ele></trkpt>
      <trkpt lat="47.0685830" lon="10.3923490"><ele>1221.7</ele></trkpt>
      <trkpt lat="47.0686310" lon="10.3926880"><ele>1220.4</ele></trkpt>
      <trkpt lat="47.0687110" lon="10.3929030"><ele>1219.6</ele></trkpt>
      <trkpt lat="47.0689380" lon="10.3932710"><ele>1217.8</ele></trkpt>
      <trkpt lat="47.0689500" lon="10.3933570"><ele>1217.5</ele></trkpt>
      <trkpt lat="47.0689210" lon="10.3933960"><ele>1217.3</ele></trkpt>
      <trkpt lat="47.0689730" lon="10.3936160"><ele>1216.4</ele></trkpt>
      <trkpt lat="47.0689990" lon="10.3939480"><ele>1215.3</ele></trkpt>
      <trkpt lat="47.0690700" lon="10.3942990"><ele>1214.1</ele></trkpt>
      <trkpt lat="47.0692010" lon="10.3945310"><ele>1213.2</ele></trkpt>
      <trkpt lat="47.0693190" lon="10.3949280"><ele>1211.8</ele></trkpt>
      <trkpt lat="47.0695020" lon="10.3952640"><ele>1210.4</ele></trkpt>
      <trkpt lat="47.0694510" lon="10.3958210"><ele>1208.6</ele></trkpt>
      <trkpt lat="47.0694800" lon="10.3962360"><ele>1207.5</ele></trkpt>
      <trkpt lat="47.0695430" lon="10.3965040"><ele>1207.5</ele></trkpt>
      <trkpt lat="47.0696710" lon="10.3967770"><ele>1207.5</ele></trkpt>
      <trkpt lat="47.0699580" lon="10.3976700"><ele>1207.5</ele></trkpt>
      <trkpt lat="47.0699800" lon="10.3978320"><ele>1207.5</ele></trkpt>
      <trkpt lat="47.0699420" lon="10.3982210"><ele>1207.5</ele></trkpt>
      <trkpt lat="47.0699640" lon="10.3987110"><ele>1207.5</ele></trkpt>
      <trkpt lat="47.0699710" lon="10.3987520"><ele>1207.5</ele></trkpt>
  </trkseg></trk>
</gpx>