<?xml version="1.0" encoding="UTF-8"?>
<gpx version="1.1" creator="Haus Meli Split" xmlns="http://www.topografix.com/GPX/1/1">
  <metadata><name>Edmund-Graf-Hütte → Diasbahn Bergstation</name></metadata>
  <trk><name>Edmund-Graf-Hütte → Diasbahn Bergstation</name><trkseg>
      <trkpt lat="47.1059810" lon="10.3559850"><ele>2377.4</ele></trkpt>
      <trkpt lat="47.1059540" lon="10.3559860"><ele>2377.1</ele></trkpt>
      <trkpt lat="47.1059080" lon="10.3562060"><ele>2375.6</ele></trkpt>
      <trkpt lat="47.1058570" lon="10.3562390"><ele>2375.0</ele></trkpt>
      <trkpt lat="47.1057290" lon="10.3566520"><ele>2372.0</ele></trkpt>
      <trkpt lat="47.1055930" lon="10.3568230"><ele>2370.2</ele></trkpt>
      <trkpt lat="47.1054860" lon="10.3568820"><ele>2369.8</ele></trkpt>
      <trkpt lat="47.1054070" lon="10.3570300"><ele>2371.3</ele></trkpt>
      <trkpt lat="47.1054170" lon="10.3572030"><ele>2372.7</ele></trkpt>
      <trkpt lat="47.1052550" lon="10.3576200"><ele>2376.5</ele></trkpt>
      <trkpt lat="47.1050390" lon="10.3577370"><ele>2379.2</ele></trkpt>
      <trkpt lat="47.1049370" lon="10.3579400"><ele>2381.3</ele></trkpt>
      <trkpt lat="47.1047410" lon="10.3580840"><ele>2383.8</ele></trkpt>
      <trkpt lat="47.1044010" lon="10.3586270"><ele>2389.7</ele></trkpt>
      <trkpt lat="47.1042560" lon="10.3587040"><ele>2392.8</ele></trkpt>
      <trkpt lat="47.1041650" lon="10.3586700"><ele>2395.3</ele></trkpt>
      <trkpt lat="47.1039390" lon="10.3584960"><ele>2402.1</ele></trkpt>
      <trkpt lat="47.1037200" lon="10.3582220"><ele>2409.7</ele></trkpt>
      <trkpt lat="47.1035840" lon="10.3579430"><ele>2415.9</ele></trkpt>
      <trkpt lat="47.1034940" lon="10.3578530"><ele>2418.8</ele></trkpt>
      <trkpt lat="47.1034400" lon="10.3577530"><ele>2421.2</ele></trkpt>
      <trkpt lat="47.1032760" lon="10.3572970"><ele>2430.5</ele></trkpt>
      <trkpt lat="47.1030790" lon="10.3569990"><ele>2438.0</ele></trkpt>
      <trkpt lat="47.1029890" lon="10.3569020"><ele>2441.5</ele></trkpt>
      <trkpt lat="47.1029730" lon="10.3568310"><ele>2443.1</ele></trkpt>
      <trkpt lat="47.1028380" lon="10.3566060"><ele>2449.4</ele></trkpt>
      <trkpt lat="47.1028230" lon="10.3565980"><ele>2449.9</ele></trkpt>
      <trkpt lat="47.1026510" lon="10.3570430"><ele>2460.8</ele></trkpt>
      <trkpt lat="47.1026520" lon="10.3571000"><ele>2462.1</ele></trkpt>
      <trkpt lat="47.1025620" lon="10.3574000"><ele>2469.0</ele></trkpt>
      <trkpt lat="47.1025090" lon="10.3575050"><ele>2471.8</ele></trkpt>
      <trkpt lat="47.1022410" lon="10.3566430"><ele>2492.0</ele></trkpt>
      <trkpt lat="47.1021430" lon="10.3568440"><ele>2496.5</ele></trkpt>
      <trkpt lat="47.1021530" lon="10.3569310"><ele>2497.8</ele></trkpt>
      <trkpt lat="47.1020810" lon="10.3572040"><ele>2502.2</ele></trkpt>
      <trkpt lat="47.1018400" lon="10.3565700"><ele>2513.0</ele></trkpt>
      <trkpt lat="47.1018900" lon="10.3564280"><ele>2515.3</ele></trkpt>
      <trkpt lat="47.1018830" lon="10.3557330"><ele>2525.7</ele></trkpt>
      <trkpt lat="47.1018120" lon="10.3556520"><ele>2527.6</ele></trkpt>
      <trkpt lat="47.1018150" lon="10.3548550"><ele>2535.0</ele></trkpt>
      <trkpt lat="47.1018290" lon="10.3543800"><ele>2536.2</ele></trkpt>
      <trkpt lat="47.1019060" lon="10.3542010"><ele>2536.7</ele></trkpt>
      <trkpt lat="47.1018460" lon="10.3541500"><ele>2537.0</ele></trkpt>
      <trkpt lat="47.1018690" lon="10.3540120"><ele>2537.3</ele></trkpt>
      <trkpt lat="47.1018520" lon="10.3536610"><ele>2538.2</ele></trkpt>
      <trkpt lat="47.1017480" lon="10.3533090"><ele>2539.2</ele></trkpt>
      <trkpt lat="47.1017480" lon="10.3531850"><ele>2539.5</ele></trkpt>
      <trkpt lat="47.1016600" lon="10.3531440"><ele>2539.9</ele></trkpt>
      <trkpt lat="47.1015490" lon="10.3528300"><ele>2540.8</ele></trkpt>
      <trkpt lat="47.1014190" lon="10.3527330"><ele>2541.9</ele></trkpt>
      <trkpt lat="47.1012450" lon="10.3527700"><ele>2543.3</ele></trkpt>
      <trkpt lat="47.1010780" lon="10.3527420"><ele>2544.5</ele></trkpt>
      <trkpt lat="47.1009460" lon="10.3526760"><ele>2545.6</ele></trkpt>
      <trkpt lat="47.1008280" lon="10.3527240"><ele>2546.5</ele></trkpt>
      <trkpt lat="47.1007240" lon="10.3526830"><ele>2547.3</ele></trkpt>
      <trkpt lat="47.1005450" lon="10.3526800"><ele>2548.7</ele></trkpt>
      <trkpt lat="47.1003400" lon="10.3529450"><ele>2550.8</ele></trkpt>
      <trkpt lat="47.1001650" lon="10.3529150"><ele>2552.1</ele></trkpt>
      <trkpt lat="47.0999660" lon="10.3529280"><ele>2553.6</ele></trkpt>
      <trkpt lat="47.0996890" lon="10.3531370"><ele>2556.9</ele></trkpt>
      <trkpt lat="47.0994460" lon="10.3531550"><ele>2559.8</ele></trkpt>
      <trkpt lat="47.0993840" lon="10.3530310"><ele>2561.0</ele></trkpt>
      <trkpt lat="47.0991790" lon="10.3528730"><ele>2563.8</ele></trkpt>
      <trkpt lat="47.0990570" lon="10.3523630"><ele>2568.2</ele></trkpt>
      <trkpt lat="47.0985410" lon="10.3511360"><ele>2579.8</ele></trkpt>
      <trkpt lat="47.0985310" lon="10.3509660"><ele>2581.1</ele></trkpt>
      <trkpt lat="47.0985500" lon="10.3507270"><ele>2583.0</ele></trkpt>
      <trkpt lat="47.0988360" lon="10.3502620"><ele>2588.0</ele></trkpt>
      <trkpt lat="47.0990140" lon="10.3500790"><ele>2590.5</ele></trkpt>
      <trkpt lat="47.0990370" lon="10.3500020"><ele>2591.1</ele></trkpt>
      <trkpt lat="47.0988160" lon="10.3500790"><ele>2593.8</ele></trkpt>
      <trkpt lat="47.0985930" lon="10.3502440"><ele>2596.7</ele></trkpt>
      <trkpt lat="47.0983050" lon="10.3503930"><ele>2605.1</ele></trkpt>
      <trkpt lat="47.0978220" lon="10.3504980"><ele>2618.8</ele></trkpt>
      <trkpt lat="47.0976800" lon="10.3503200"><ele>2624.1</ele></trkpt>
      <trkpt lat="47.0976710" lon="10.3505340"><ele>2628.2</ele></trkpt>
      <trkpt lat="47.0975300" lon="10.3504490"><ele>2632.4</ele></trkpt>
      <trkpt lat="47.0974140" lon="10.3504570"><ele>2635.7</ele></trkpt>
      <trkpt lat="47.0974940" lon="10.3506650"><ele>2640.3</ele></trkpt>
      <trkpt lat="47.0972720" lon="10.3506900"><ele>2646.5</ele></trkpt>
      <trkpt lat="47.0971460" lon="10.3507410"><ele>2647.9</ele></trkpt>
      <trkpt lat="47.0972230" lon="10.3508950"><ele>2648.9</ele></trkpt>
      <trkpt lat="47.0964550" lon="10.3509260"><ele>2654.4</ele></trkpt>
      <trkpt lat="47.0962760" lon="10.3508620"><ele>2655.7</ele></trkpt>
      <trkpt lat="47.0956300" lon="10.3511270"><ele>2658.7</ele></trkpt>
      <trkpt lat="47.0954790" lon="10.3512430"><ele>2654.9</ele></trkpt>
      <trkpt lat="47.0951560" lon="10.3512650"><ele>2647.5</ele></trkpt>
      <trkpt lat="47.0951450" lon="10.3513860"><ele>2645.6</ele></trkpt>
      <trkpt lat="47.0949860" lon="10.3513690"><ele>2642.0</ele></trkpt>
      <trkpt lat="47.0948590" lon="10.3511960"><ele>2638.1</ele></trkpt>
      <trkpt lat="47.0948510" lon="10.3511050"><ele>2636.7</ele></trkpt>
      <trkpt lat="47.0948070" lon="10.3512830"><ele>2633.7</ele></trkpt>
      <trkpt lat="47.0947550" lon="10.3512460"><ele>2632.4</ele></trkpt>
      <trkpt lat="47.0947400" lon="10.3512940"><ele>2631.6</ele></trkpt>
      <trkpt lat="47.0946820" lon="10.3511120"><ele>2628.5</ele></trkpt>
      <trkpt lat="47.0946430" lon="10.3512510"><ele>2626.2</ele></trkpt>
      <trkpt lat="47.0945700" lon="10.3510770"><ele>2623.0</ele></trkpt>
      <trkpt lat="47.0944780" lon="10.3514700"><ele>2616.2</ele></trkpt>
      <trkpt lat="47.0943410" lon="10.3511190"><ele>2609.2</ele></trkpt>
      <trkpt lat="47.0941930" lon="10.3515260"><ele>2601.1</ele></trkpt>
      <trkpt lat="47.0939030" lon="10.3508620"><ele>2587.2</ele></trkpt>
      <trkpt lat="47.0936800" lon="10.3507460"><ele>2581.2</ele></trkpt>
      <trkpt lat="47.0934890" lon="10.3505460"><ele>2575.1</ele></trkpt>
      <trkpt lat="47.0932950" lon="10.3504720"><ele>2570.1</ele></trkpt>
      <trkpt lat="47.0924270" lon="10.3505230"><ele>2549.1</ele></trkpt>
      <trkpt lat="47.0919080" lon="10.3504970"><ele>2536.5</ele></trkpt>
      <trkpt lat="47.0917180" lon="10.3505520"><ele>2531.8</ele></trkpt>
      <trkpt lat="47.0913000" lon="10.3508020"><ele>2521.4</ele></trkpt>
      <trkpt lat="47.0909770" lon="10.3508020"><ele>2514.1</ele></trkpt>
      <trkpt lat="47.0908970" lon="10.3509250"><ele>2511.5</ele></trkpt>
      <trkpt lat="47.0906450" lon="10.3508980"><ele>2505.7</ele></trkpt>
      <trkpt lat="47.0903360" lon="10.3510080"><ele>2498.5</ele></trkpt>
      <trkpt lat="47.0902070" lon="10.3511210"><ele>2495.1</ele></trkpt>
      <trkpt lat="47.0899560" lon="10.3512690"><ele>2489.0</ele></trkpt>
      <trkpt lat="47.0897160" lon="10.3515910"><ele>2480.7</ele></trkpt>
      <trkpt lat="47.0896320" lon="10.3517770"><ele>2476.8</ele></trkpt>
      <trkpt lat="47.0894150" lon="10.3519480"><ele>2470.5</ele></trkpt>
      <trkpt lat="47.0890740" lon="10.3521400"><ele>2461.1</ele></trkpt>
      <trkpt lat="47.0887010" lon="10.3522490"><ele>2451.4</ele></trkpt>
      <trkpt lat="47.0885020" lon="10.3523640"><ele>2445.9</ele></trkpt>
      <trkpt lat="47.0882730" lon="10.3523620"><ele>2440.3</ele></trkpt>
      <trkpt lat="47.0879090" lon="10.3521520"><ele>2431.4</ele></trkpt>
      <trkpt lat="47.0875320" lon="10.3522200"><ele>2422.7</ele></trkpt>
      <trkpt lat="47.0875040" lon="10.3519890"><ele>2419.0</ele></trkpt>
      <trkpt lat="47.0875450" lon="10.3515370"><ele>2411.9</ele></trkpt>
      <trkpt lat="47.0875390" lon="10.3511590"><ele>2406.1</ele></trkpt>
      <trkpt lat="47.0874630" lon="10.3509120"><ele>2401.9</ele></trkpt>
      <trkpt lat="47.0874540" lon="10.3507430"><ele>2399.7</ele></trkpt>
      <trkpt lat="47.0872950" lon="10.3502640"><ele>2393.2</ele></trkpt>
      <trkpt lat="47.0872500" lon="10.3501960"><ele>2392.1</ele></trkpt>
      <trkpt lat="47.0871820" lon="10.3499960"><ele>2389.3</ele></trkpt>
      <trkpt lat="47.0870640" lon="10.3498200"><ele>2386.3</ele></trkpt>
      <trkpt lat="47.0870220" lon="10.3496440"><ele>2384.1</ele></trkpt>
      <trkpt lat="47.0868270" lon="10.3492190"><ele>2377.8</ele></trkpt>
      <trkpt lat="47.0865920" lon="10.3489060"><ele>2372.2</ele></trkpt>
      <trkpt lat="47.0863640" lon="10.3486650"><ele>2366.9</ele></trkpt>
      <trkpt lat="47.0863430" lon="10.3486060"><ele>2366.0</ele></trkpt>
      <trkpt lat="47.0862350" lon="10.3485580"><ele>2363.8</ele></trkpt>
      <trkpt lat="47.0861890" lon="10.3484860"><ele>2362.4</ele></trkpt>
      <trkpt lat="47.0860360" lon="10.3479620"><ele>2354.7</ele></trkpt>
      <trkpt lat="47.0859540" lon="10.3478480"><ele>2352.5</ele></trkpt>
      <trkpt lat="47.0859110" lon="10.3478360"><ele>2351.6</ele></trkpt>
      <trkpt lat="47.0858640" lon="10.3477660"><ele>2350.3</ele></trkpt>
      <trkpt lat="47.0858320" lon="10.3475710"><ele>2347.6</ele></trkpt>
      <trkpt lat="47.0857610" lon="10.3474560"><ele>2345.5</ele></trkpt>
      <trkpt lat="47.0855270" lon="10.3475760"><ele>2340.6</ele></trkpt>
      <trkpt lat="47.0853410" lon="10.3477160"><ele>2336.4</ele></trkpt>
      <trkpt lat="47.0850560" lon="10.3478500"><ele>2329.2</ele></trkpt>
      <trkpt lat="47.0849890" lon="10.3479180"><ele>2327.0</ele></trkpt>
      <trkpt lat="47.0849090" lon="10.3479220"><ele>2324.7</ele></trkpt>
      <trkpt lat="47.0847690" lon="10.3481640"><ele>2318.7</ele></trkpt>
      <trkpt lat="47.0845920" lon="10.3485530"><ele>2309.8</ele></trkpt>
      <trkpt lat="47.0844450" lon="10.3486180"><ele>2305.5</ele></trkpt>
      <trkpt lat="47.0844230" lon="10.3486910"><ele>2304.0</ele></trkpt>
      <trkpt lat="47.0842800" lon="10.3487980"><ele>2299.5</ele></trkpt>
      <trkpt lat="47.0840940" lon="10.3488380"><ele>2294.2</ele></trkpt>
      <trkpt lat="47.0839640" lon="10.3491360"><ele>2287.5</ele></trkpt>
      <trkpt lat="47.0839420" lon="10.3493000"><ele>2284.3</ele></trkpt>
      <trkpt lat="47.0835970" lon="10.3497300"><ele>2272.2</ele></trkpt>
      <trkpt lat="47.0833240" lon="10.3503930"><ele>2258.1</ele></trkpt>
      <trkpt lat="47.0829370" lon="10.3510380"><ele>2242.5</ele></trkpt>
      <trkpt lat="47.0829130" lon="10.3510330"><ele>2241.9</ele></trkpt>
      <trkpt lat="47.0828660" lon="10.3511770"><ele>2239.0</ele></trkpt>
      <trkpt lat="47.0827620" lon="10.3512770"><ele>2235.7</ele></trkpt>
      <trkpt lat="47.0826600" lon="10.3514570"><ele>2233.2</ele></trkpt>
      <trkpt lat="47.0824490" lon="10.3516870"><ele>2229.4</ele></trkpt>
      <trkpt lat="47.0823830" lon="10.3517160"><ele>2228.4</ele></trkpt>
      <trkpt lat="47.0823110" lon="10.3514810"><ele>2225.8</ele></trkpt>
      <trkpt lat="47.0823320" lon="10.3511920"><ele>2222.9</ele></trkpt>
      <trkpt lat="47.0823300" lon="10.3510990"><ele>2222.0</ele></trkpt>
      <trkpt lat="47.0823050" lon="10.3510500"><ele>2221.4</ele></trkpt>
      <trkpt lat="47.0822510" lon="10.3510530"><ele>2220.6</ele></trkpt>
      <trkpt lat="47.0821030" lon="10.3511740"><ele>2218.2</ele></trkpt>
      <trkpt lat="47.0820030" lon="10.3511040"><ele>2216.5</ele></trkpt>
      <trkpt lat="47.0819330" lon="10.3510340"><ele>2215.3</ele></trkpt>
      <trkpt lat="47.0816520" lon="10.3509340"><ele>2211.1</ele></trkpt>
      <trkpt lat="47.0815790" lon="10.3509290"><ele>2210.0</ele></trkpt>
      <trkpt lat="47.0814010" lon="10.3509940"><ele>2207.8</ele></trkpt>
      <trkpt lat="47.0810770" lon="10.3509940"><ele>2204.2</ele></trkpt>
      <trkpt lat="47.0807680" lon="10.3511290"><ele>2200.7</ele></trkpt>
      <trkpt lat="47.0802910" lon="10.3513950"><ele>2195.1</ele></trkpt>
      <trkpt lat="47.0800460" lon="10.3516730"><ele>2191.7</ele></trkpt>
      <trkpt lat="47.0796200" lon="10.3514890"><ele>2188.2</ele></trkpt>
      <trkpt lat="47.0794480" lon="10.3511620"><ele>2186.7</ele></trkpt>
      <trkpt lat="47.0793320" lon="10.3510700"><ele>2186.0</ele></trkpt>
      <trkpt lat="47.0786820" lon="10.3509180"><ele>2182.6</ele></trkpt>
      <trkpt lat="47.0784290" lon="10.3508130"><ele>2181.3</ele></trkpt>
      <trkpt lat="47.0780870" lon="10.3508170"><ele>2178.7</ele></trkpt>
      <trkpt lat="47.0779330" lon="10.3510450"><ele>2176.0</ele></trkpt>
      <trkpt lat="47.0774680" lon="10.3514460"><ele>2169.3</ele></trkpt>
      <trkpt lat="47.0773080" lon="10.3514500"><ele>2167.3</ele></trkpt>
      <trkpt lat="47.0770380" lon="10.3517410"><ele>2163.2</ele></trkpt>
      <trkpt lat="47.0767370" lon="10.3517200"><ele>2159.4</ele></trkpt>
      <trkpt lat="47.0762020" lon="10.3517590"><ele>2151.5</ele></trkpt>
      <trkpt lat="47.0759390" lon="10.3517220"><ele>2147.5</ele></trkpt>
      <trkpt lat="47.0754970" lon="10.3519370"><ele>2140.3</ele></trkpt>
      <trkpt lat="47.0751790" lon="10.3519970"><ele>2135.3</ele></trkpt>
      <trkpt lat="47.0747150" lon="10.3521840"><ele>2126.6</ele></trkpt>
      <trkpt lat="47.0749110" lon="10.3522150"><ele>2121.7</ele></trkpt>
      <trkpt lat="47.0751120" lon="10.3523380"><ele>2116.3</ele></trkpt>
      <trkpt lat="47.0747950" lon="10.3527150"><ele>2106.3</ele></trkpt>
      <trkpt lat="47.0745730" lon="10.3529320"><ele>2099.7</ele></trkpt>
      <trkpt lat="47.0736760" lon="10.3535760"><ele>2071.9</ele></trkpt>
      <trkpt lat="47.0735370" lon="10.3535250"><ele>2067.4</ele></trkpt>
      <trkpt lat="47.0730900" lon="10.3536470"><ele>2052.9</ele></trkpt>
      <trkpt lat="47.0728660" lon="10.3538200"><ele>2044.8</ele></trkpt>
      <trkpt lat="47.0726260" lon="10.3540860"><ele>2035.2</ele></trkpt>
      <trkpt lat="47.0719040" lon="10.3545970"><ele>2009.2</ele></trkpt>
      <trkpt lat="47.0716810" lon="10.3546940"><ele>2001.5</ele></trkpt>
      <trkpt lat="47.0714020" lon="10.3547570"><ele>1992.3</ele></trkpt>
      <trkpt lat="47.0712460" lon="10.3548750"><ele>1986.5</ele></trkpt>
      <trkpt lat="47.0711530" lon="10.3551320"><ele>1980.0</ele></trkpt>
      <trkpt lat="47.0710860" lon="10.3550190"><ele>1976.7</ele></trkpt>
      <trkpt lat="47.0710350" lon="10.3551320"><ele>1973.6</ele></trkpt>
      <trkpt lat="47.0709300" lon="10.3551070"><ele>1970.2</ele></trkpt>
      <trkpt lat="47.0708770" lon="10.3552330"><ele>1967.1</ele></trkpt>
      <trkpt lat="47.0707800" lon="10.3549520"><ele>1960.8</ele></trkpt>
      <trkpt lat="47.0705290" lon="10.3551870"><ele>1952.0</ele></trkpt>
      <trkpt lat="47.0702250" lon="10.3555290"><ele>1940.7</ele></trkpt>
      <trkpt lat="47.0695160" lon="10.3556770"><ele>1919.6</ele></trkpt>
      <trkpt lat="47.0693520" lon="10.3557820"><ele>1914.8</ele></trkpt>
      <trkpt lat="47.0690120" lon="10.3562800"><ele>1903.8</ele></trkpt>
      <trkpt lat="47.0689720" lon="10.3563390"><ele>1902.5</ele></trkpt>
      <trkpt lat="47.0689650" lon="10.3565690"><ele>1898.9</ele></trkpt>
      <trkpt lat="47.0688320" lon="10.3566260"><ele>1895.7</ele></trkpt>
      <trkpt lat="47.0687130" lon="10.3566320"><ele>1893.0</ele></trkpt>
      <trkpt lat="47.0686460" lon="10.3566000"><ele>1891.4</ele></trkpt>
      <trkpt lat="47.0685130" lon="10.3565160"><ele>1888.0</ele></trkpt>
      <trkpt lat="47.0684380" lon="10.3566100"><ele>1885.8</ele></trkpt>
      <trkpt lat="47.0683910" lon="10.3566150"><ele>1884.7</ele></trkpt>
      <trkpt lat="47.0683290" lon="10.3565710"><ele>1883.1</ele></trkpt>
      <trkpt lat="47.0683720" lon="10.3567490"><ele>1880.2</ele></trkpt>
      <trkpt lat="47.0683540" lon="10.3567730"><ele>1879.6</ele></trkpt>
      <trkpt lat="47.0680520" lon="10.3566380"><ele>1873.3</ele></trkpt>
      <trkpt lat="47.0678270" lon="10.3565880"><ele>1869.9</ele></trkpt>
      <trkpt lat="47.0677350" lon="10.3566230"><ele>1868.5</ele></trkpt>
      <trkpt lat="47.0676460" lon="10.3567430"><ele>1866.7</ele></trkpt>
      <trkpt lat="47.0675810" lon="10.3566930"><ele>1865.7</ele></trkpt>
      <trkpt lat="47.0672120" lon="10.3564050"><ele>1859.5</ele></trkpt>
      <trkpt lat="47.0670900" lon="10.3563900"><ele>1857.6</ele></trkpt>
      <trkpt lat="47.0669990" lon="10.3564160"><ele>1856.3</ele></trkpt>
      <trkpt lat="47.0667210" lon="10.3565920"><ele>1851.8</ele></trkpt>
      <trkpt lat="47.0666790" lon="10.3567450"><ele>1850.1</ele></trkpt>
      <trkpt lat="47.0666600" lon="10.3569380"><ele>1848.4</ele></trkpt>
      <trkpt lat="47.0667890" lon="10.3571950"><ele>1848.4</ele></trkpt>
      <trkpt lat="47.0668510" lon="10.3572030"><ele>1848.4</ele></trkpt>
      <trkpt lat="47.0669790" lon="10.3573850"><ele>1848.4</ele></trkpt>
      <trkpt lat="47.0673440" lon="10.3575450"><ele>1848.4</ele></trkpt>
      <trkpt lat="47.0673840" lon="10.3576450"><ele>1848.4</ele></trkpt>
      <trkpt lat="47.0673820" lon="10.3578630"><ele>1848.4</ele></trkpt>
      <trkpt lat="47.0674290" lon="10.3580240"><ele>1848.4</ele></trkpt>
      <trkpt lat="47.0674160" lon="10.3581240"><ele>1848.4</ele></trkpt>
      <trkpt lat="47.0670720" lon="10.3583480"><ele>1848.4</ele></trkpt>
      <trkpt lat="47.0670040" lon="10.3583260"><ele>1848.4</ele></trkpt>
      <trkpt lat="47.0672350" lon="10.3589700"><ele>1848.4</ele></trkpt>
      <trkpt lat="47.0672290" lon="10.3590390"><ele>1848.4</ele></trkpt>
      <trkpt lat="47.0671150" lon="10.3590230"><ele>1848.4</ele></trkpt>
  </trkseg></trk>
</gpx>