<?xml version="1.0" encoding="UTF-8"?>
<gpx version="1.1" creator="Haus Meli Split" xmlns="http://www.topografix.com/GPX/1/1">
  <metadata><name>Edmund-Graf-Hütte → Hoher Riffler</name></metadata>
  <trk><name>Edmund-Graf-Hütte → Hoher Riffler</name><trkseg>
      <trkpt lat="47.1059670" lon="10.3558340"><ele>2376.6</ele></trkpt>
      <trkpt lat="47.1059810" lon="10.3559850"><ele>2375.6</ele></trkpt>
      <trkpt lat="47.1060020" lon="10.3559850"><ele>2375.4</ele></trkpt>
      <trkpt lat="47.1061310" lon="10.3562340"><ele>2375.6</ele></trkpt>
      <trkpt lat="47.1061870" lon="10.3562840"><ele>2376.9</ele></trkpt>
      <trkpt lat="47.1062060" lon="10.3562530"><ele>2377.4</ele></trkpt>
      <trkpt lat="47.1063260" lon="10.3564040"><ele>2380.5</ele></trkpt>
      <trkpt lat="47.1064200" lon="10.3565800"><ele>2383.4</ele></trkpt>
      <trkpt lat="47.1064630" lon="10.3566110"><ele>2384.3</ele></trkpt>
      <trkpt lat="47.1065020" lon="10.3564410"><ele>2386.7</ele></trkpt>
      <trkpt lat="47.1066080" lon="10.3565270"><ele>2389.0</ele></trkpt>
      <trkpt lat="47.1066180" lon="10.3564700"><ele>2389.7</ele></trkpt>
      <trkpt lat="47.1065770" lon="10.3563370"><ele>2391.6</ele></trkpt>
      <trkpt lat="47.1065880" lon="10.3562670"><ele>2392.6</ele></trkpt>
      <trkpt lat="47.1066530" lon="10.3561530"><ele>2394.5</ele></trkpt>
      <trkpt lat="47.1067530" lon="10.3561670"><ele>2396.4</ele></trkpt>
      <trkpt lat="47.1069060" lon="10.3563220"><ele>2400.0</ele></trkpt>
      <trkpt lat="47.1069490" lon="10.3565630"><ele>2403.3</ele></trkpt>
      <trkpt lat="47.1069910" lon="10.3565990"><ele>2404.2</ele></trkpt>
      <trkpt lat="47.1070290" lon="10.3565560"><ele>2405.1</ele></trkpt>
      <trkpt lat="47.1070750" lon="10.3565910"><ele>2406.1</ele></trkpt>
      <trkpt lat="47.1071620" lon="10.3563970"><ele>2409.2</ele></trkpt>
      <trkpt lat="47.1073220" lon="10.3563880"><ele>2412.6</ele></trkpt>
      <trkpt lat="47.1073750" lon="10.3564260"><ele>2413.8</ele></trkpt>
      <trkpt lat="47.1074050" lon="10.3565070"><ele>2415.1</ele></trkpt>
      <trkpt lat="47.1073970" lon="10.3567300"><ele>2418.3</ele></trkpt>
      <trkpt lat="47.1075380" lon="10.3567930"><ele>2421.4</ele></trkpt>
      <trkpt lat="47.1076450" lon="10.3567820"><ele>2423.7</ele></trkpt>
      <trkpt lat="47.1077510" lon="10.3568780"><ele>2426.3</ele></trkpt>
      <trkpt lat="47.1077950" lon="10.3569550"><ele>2427.8</ele></trkpt>
      <trkpt lat="47.1077620" lon="10.3571140"><ele>2430.1</ele></trkpt>
      <trkpt lat="47.1078560" lon="10.3571890"><ele>2432.4</ele></trkpt>
      <trkpt lat="47.1078950" lon="10.3572730"><ele>2433.9</ele></trkpt>
      <trkpt lat="47.1079200" lon="10.3575500"><ele>2437.9</ele></trkpt>
      <trkpt lat="47.1079790" lon="10.3575960"><ele>2439.3</ele></trkpt>
      <trkpt lat="47.1080810" lon="10.3575950"><ele>2441.4</ele></trkpt>
      <trkpt lat="47.1081430" lon="10.3577070"><ele>2443.5</ele></trkpt>
      <trkpt lat="47.1082060" lon="10.3576910"><ele>2444.8</ele></trkpt>
      <trkpt lat="47.1082720" lon="10.3577840"><ele>2446.7</ele></trkpt>
      <trkpt lat="47.1084070" lon="10.3577410"><ele>2449.2</ele></trkpt>
      <trkpt lat="47.1084910" lon="10.3577670"><ele>2450.7</ele></trkpt>
      <trkpt lat="47.1086970" lon="10.3577440"><ele>2454.4</ele></trkpt>
      <trkpt lat="47.1089200" lon="10.3578420"><ele>2458.6</ele></trkpt>
      <trkpt lat="47.1089920" lon="10.3577620"><ele>2460.2</ele></trkpt>
      <trkpt lat="47.1090410" lon="10.3576120"><ele>2462.2</ele></trkpt>
      <trkpt lat="47.1091370" lon="10.3575940"><ele>2464.0</ele></trkpt>
      <trkpt lat="47.1091830" lon="10.3575210"><ele>2465.2</ele></trkpt>
      <trkpt lat="47.1093110" lon="10.3574640"><ele>2467.6</ele></trkpt>
      <trkpt lat="47.1093560" lon="10.3574140"><ele>2468.6</ele></trkpt>
      <trkpt lat="47.1094170" lon="10.3574880"><ele>2470.0</ele></trkpt>
      <trkpt lat="47.1095760" lon="10.3574280"><ele>2472.9</ele></trkpt>
      <trkpt lat="47.1096770" lon="10.3573200"><ele>2475.1</ele></trkpt>
      <trkpt lat="47.1097230" lon="10.3571340"><ele>2477.6</ele></trkpt>
      <trkpt lat="47.1097520" lon="10.3568430"><ele>2481.9</ele></trkpt>
      <trkpt lat="47.1099120" lon="10.3565370"><ele>2488.1</ele></trkpt>
      <trkpt lat="47.1100530" lon="10.3563430"><ele>2492.6</ele></trkpt>
      <trkpt lat="47.1100960" lon="10.3563700"><ele>2493.7</ele></trkpt>
      <trkpt lat="47.1101570" lon="10.3566620"><ele>2498.6</ele></trkpt>
      <trkpt lat="47.1101860" lon="10.3566880"><ele>2499.4</ele></trkpt>
      <trkpt lat="47.1102140" lon="10.3566030"><ele>2500.9</ele></trkpt>
      <trkpt lat="47.1103330" lon="10.3565530"><ele>2503.8</ele></trkpt>
      <trkpt lat="47.1104520" lon="10.3567230"><ele>2507.7</ele></trkpt>
      <trkpt lat="47.1105940" lon="10.3567120"><ele>2511.0</ele></trkpt>
      <trkpt lat="47.1106570" lon="10.3569770"><ele>2515.5</ele></trkpt>
      <trkpt lat="47.1108280" lon="10.3572810"><ele>2522.0</ele></trkpt>
      <trkpt lat="47.1109160" lon="10.3573350"><ele>2524.8</ele></trkpt>
      <trkpt lat="47.1109450" lon="10.3572820"><ele>2526.2</ele></trkpt>
      <trkpt lat="47.1109990" lon="10.3572540"><ele>2527.9</ele></trkpt>
      <trkpt lat="47.1110080" lon="10.3571790"><ele>2529.4</ele></trkpt>
      <trkpt lat="47.1111140" lon="10.3571470"><ele>2532.6</ele></trkpt>
      <trkpt lat="47.1111740" lon="10.3570320"><ele>2535.6</ele></trkpt>
      <trkpt lat="47.1112850" lon="10.3573400"><ele>2542.6</ele></trkpt>
      <trkpt lat="47.1114280" lon="10.3575960"><ele>2549.2</ele></trkpt>
      <trkpt lat="47.1114840" lon="10.3574570"><ele>2552.5</ele></trkpt>
      <trkpt lat="47.1115130" lon="10.3572710"><ele>2556.3</ele></trkpt>
      <trkpt lat="47.1115730" lon="10.3572620"><ele>2558.1</ele></trkpt>
      <trkpt lat="47.1117720" lon="10.3574950"><ele>2565.7</ele></trkpt>
      <trkpt lat="47.1117930" lon="10.3574420"><ele>2566.9</ele></trkpt>
      <trkpt lat="47.1118410" lon="10.3574930"><ele>2568.6</ele></trkpt>
      <trkpt lat="47.1118850" lon="10.3573870"><ele>2571.1</ele></trkpt>
      <trkpt lat="47.1120000" lon="10.3574260"><ele>2574.7</ele></trkpt>
      <trkpt lat="47.1120880" lon="10.3575000"><ele>2578.2</ele></trkpt>
      <trkpt lat="47.1121090" lon="10.3575570"><ele>2579.7</ele></trkpt>
      <trkpt lat="47.1121820" lon="10.3575390"><ele>2582.3</ele></trkpt>
      <trkpt lat="47.1123110" lon="10.3576100"><ele>2587.0</ele></trkpt>
      <trkpt lat="47.1123640" lon="10.3578840"><ele>2593.7</ele></trkpt>
      <trkpt lat="47.1123800" lon="10.3584600"><ele>2607.2</ele></trkpt>
      <trkpt lat="47.1125650" lon="10.3595970"><ele>2634.5</ele></trkpt>
      <trkpt lat="47.1129640" lon="10.3598920"><ele>2651.8</ele></trkpt>
      <trkpt lat="47.1129970" lon="10.3602470"><ele>2661.3</ele></trkpt>
      <trkpt lat="47.1129640" lon="10.3610870"><ele>2683.6</ele></trkpt>
      <trkpt lat="47.1130250" lon="10.3614560"><ele>2693.7</ele></trkpt>
      <trkpt lat="47.1133340" lon="10.3619800"><ele>2713.4</ele></trkpt>
      <trkpt lat="47.1138520" lon="10.3626960"><ele>2747.2</ele></trkpt>
      <trkpt lat="47.1139340" lon="10.3635060"><ele>2773.7</ele></trkpt>
      <trkpt lat="47.1140980" lon="10.3637070"><ele>2783.8</ele></trkpt>
      <trkpt lat="47.1139810" lon="10.3639270"><ele>2793.2</ele></trkpt>
      <trkpt lat="47.1141710" lon="10.3643770"><ele>2814.0</ele></trkpt>
      <trkpt lat="47.1142660" lon="10.3643720"><ele>2819.5</ele></trkpt>
      <trkpt lat="47.1143480" lon="10.3645250"><ele>2827.1</ele></trkpt>
      <trkpt lat="47.1142970" lon="10.3647050"><ele>2834.8</ele></trkpt>
      <trkpt lat="47.1146240" lon="10.3648390"><ele>2854.4</ele></trkpt>
      <trkpt lat="47.1147810" lon="10.3651930"><ele>2871.0</ele></trkpt>
      <trkpt lat="47.1147260" lon="10.3652790"><ele>2875.6</ele></trkpt>
      <trkpt lat="47.1148200" lon="10.3654290"><ele>2883.6</ele></trkpt>
      <trkpt lat="47.1149820" lon="10.3654770"><ele>2893.2</ele></trkpt>
      <trkpt lat="47.1149830" lon="10.3655790"><ele>2896.8</ele></trkpt>
      <trkpt lat="47.1150980" lon="10.3656480"><ele>2902.5</ele></trkpt>
      <trkpt lat="47.1153230" lon="10.3656520"><ele>2912.7</ele></trkpt>
      <trkpt lat="47.1153520" lon="10.3658610"><ele>2919.3</ele></trkpt>
      <trkpt lat="47.1152830" lon="10.3660110"><ele>2925.0</ele></trkpt>
      <trkpt lat="47.1153160" lon="10.3661370"><ele>2929.1</ele></trkpt>
      <trkpt lat="47.1154110" lon="10.3661500"><ele>2933.5</ele></trkpt>
      <trkpt lat="47.1153890" lon="10.3662930"><ele>2938.0</ele></trkpt>
      <trkpt lat="47.1155200" lon="10.3663730"><ele>2944.5</ele></trkpt>
      <trkpt lat="47.1155660" lon="10.3665320"><ele>2949.9</ele></trkpt>
      <trkpt lat="47.1155930" lon="10.3666520"><ele>2953.8</ele></trkpt>
      <trkpt lat="47.1155380" lon="10.3668100"><ele>2959.3</ele></trkpt>
      <trkpt lat="47.1156130" lon="10.3669360"><ele>2964.5</ele></trkpt>
      <trkpt lat="47.1157170" lon="10.3669820"><ele>2969.5</ele></trkpt>
      <trkpt lat="47.1155910" lon="10.3672610"><ele>2979.5</ele></trkpt>
      <trkpt lat="47.1155910" lon="10.3674220"><ele>2983.6</ele></trkpt>
      <trkpt lat="47.1156950" lon="10.3675020"><ele>2988.1</ele></trkpt>
      <trkpt lat="47.1154980" lon="10.3680240"><ele>3003.6</ele></trkpt>
      <trkpt lat="47.1156120" lon="10.3689280"><ele>3027.6</ele></trkpt>
      <trkpt lat="47.1153750" lon="10.3698290"><ele>3048.1</ele></trkpt>
      <trkpt lat="47.1154850" lon="10.3699070"><ele>3049.4</ele></trkpt>
      <trkpt lat="47.1153810" lon="10.3703130"><ele>3052.8</ele></trkpt>
      <trkpt lat="47.1156790" lon="10.3707400"><ele>3057.4</ele></trkpt>
      <trkpt lat="47.1159540" lon="10.3709570"><ele>3060.9</ele></trkpt>
  </trkseg></trk>
</gpx>