<?xml version="1.0" encoding="UTF-8"?>
<gpx version="1.1" creator="Haus Meli Split" xmlns="http://www.topografix.com/GPX/1/1">
  <metadata><name>Blankasee → Edmund-Graf-Hütte</name></metadata>
  <trk><name>Blankasee → Edmund-Graf-Hütte</name><trkseg>
      <trkpt lat="47.0995810" lon="10.3764000"><ele>2408.9</ele></trkpt>
      <trkpt lat="47.0994800" lon="10.3762240"><ele>2412.8</ele></trkpt>
      <trkpt lat="47.0994250" lon="10.3758730"><ele>2418.9</ele></trkpt>
      <trkpt lat="47.0993440" lon="10.3757120"><ele>2422.3</ele></trkpt>
      <trkpt lat="47.0993470" lon="10.3750580"><ele>2433.4</ele></trkpt>
      <trkpt lat="47.0992790" lon="10.3749170"><ele>2436.3</ele></trkpt>
      <trkpt lat="47.0993500" lon="10.3748090"><ele>2438.8</ele></trkpt>
      <trkpt lat="47.0993180" lon="10.3747420"><ele>2440.3</ele></trkpt>
      <trkpt lat="47.0993370" lon="10.3746580"><ele>2441.8</ele></trkpt>
      <trkpt lat="47.0993110" lon="10.3745910"><ele>2443.2</ele></trkpt>
      <trkpt lat="47.0993420" lon="10.3744880"><ele>2445.1</ele></trkpt>
      <trkpt lat="47.0993090" lon="10.3742890"><ele>2448.7</ele></trkpt>
      <trkpt lat="47.0993320" lon="10.3739890"><ele>2454.0</ele></trkpt>
      <trkpt lat="47.0993940" lon="10.3738140"><ele>2457.5</ele></trkpt>
      <trkpt lat="47.0994900" lon="10.3738100"><ele>2459.9</ele></trkpt>
      <trkpt lat="47.0995780" lon="10.3737060"><ele>2462.8</ele></trkpt>
      <trkpt lat="47.0997410" lon="10.3734210"><ele>2469.4</ele></trkpt>
      <trkpt lat="47.0998670" lon="10.3731400"><ele>2475.3</ele></trkpt>
      <trkpt lat="47.1001910" lon="10.3729040"><ele>2484.6</ele></trkpt>
      <trkpt lat="47.1002900" lon="10.3728810"><ele>2487.0</ele></trkpt>
      <trkpt lat="47.1004830" lon="10.3731460"><ele>2493.2</ele></trkpt>
      <trkpt lat="47.1005640" lon="10.3733410"><ele>2496.8</ele></trkpt>
      <trkpt lat="47.1007180" lon="10.3732340"><ele>2500.8</ele></trkpt>
      <trkpt lat="47.1007920" lon="10.3732340"><ele>2502.5</ele></trkpt>
      <trkpt lat="47.1009370" lon="10.3733780"><ele>2506.6</ele></trkpt>
      <trkpt lat="47.1010950" lon="10.3732880"><ele>2510.5</ele></trkpt>
      <trkpt lat="47.1012590" lon="10.3732420"><ele>2514.4</ele></trkpt>
      <trkpt lat="47.1015050" lon="10.3729970"><ele>2521.3</ele></trkpt>
      <trkpt lat="47.1016780" lon="10.3729400"><ele>2525.4</ele></trkpt>
      <trkpt lat="47.1017270" lon="10.3728960"><ele>2526.8</ele></trkpt>
      <trkpt lat="47.1019210" lon="10.3728790"><ele>2532.8</ele></trkpt>
      <trkpt lat="47.1018070" lon="10.3727910"><ele>2537.0</ele></trkpt>
      <trkpt lat="47.1018570" lon="10.3727040"><ele>2539.5</ele></trkpt>
      <trkpt lat="47.1020210" lon="10.3726000"><ele>2545.4</ele></trkpt>
      <trkpt lat="47.1019720" lon="10.3725530"><ele>2547.3</ele></trkpt>
      <trkpt lat="47.1021610" lon="10.3724420"><ele>2553.9</ele></trkpt>
      <trkpt lat="47.1021150" lon="10.3723770"><ele>2556.0</ele></trkpt>
      <trkpt lat="47.1021200" lon="10.3723250"><ele>2557.2</ele></trkpt>
      <trkpt lat="47.1023740" lon="10.3720810"><ele>2567.1</ele></trkpt>
      <trkpt lat="47.1024580" lon="10.3719110"><ele>2571.8</ele></trkpt>
      <trkpt lat="47.1025540" lon="10.3718030"><ele>2575.7</ele></trkpt>
      <trkpt lat="47.1027320" lon="10.3711980"><ele>2589.7</ele></trkpt>
      <trkpt lat="47.1027810" lon="10.3707450"><ele>2598.1</ele></trkpt>
      <trkpt lat="47.1026090" lon="10.3704260"><ele>2605.5</ele></trkpt>
      <trkpt lat="47.1026240" lon="10.3702680"><ele>2608.4</ele></trkpt>
      <trkpt lat="47.1026530" lon="10.3701920"><ele>2610.0</ele></trkpt>
      <trkpt lat="47.1025260" lon="10.3698790"><ele>2616.7</ele></trkpt>
      <trkpt lat="47.1025000" lon="10.3697530"><ele>2619.1</ele></trkpt>
      <trkpt lat="47.1025720" lon="10.3698120"><ele>2621.3</ele></trkpt>
      <trkpt lat="47.1026480" lon="10.3698140"><ele>2623.3</ele></trkpt>
      <trkpt lat="47.1025650" lon="10.3695170"><ele>2629.2</ele></trkpt>
      <trkpt lat="47.1025180" lon="10.3694660"><ele>2630.8</ele></trkpt>
      <trkpt lat="47.1024290" lon="10.3694670"><ele>2633.2</ele></trkpt>
      <trkpt lat="47.1024650" lon="10.3694070"><ele>2634.6</ele></trkpt>
      <trkpt lat="47.1024260" lon="10.3693210"><ele>2634.6</ele></trkpt>
      <trkpt lat="47.1024180" lon="10.3691760"><ele>2634.3</ele></trkpt>
      <trkpt lat="47.1022970" lon="10.3689920"><ele>2633.9</ele></trkpt>
      <trkpt lat="47.1021760" lon="10.3686560"><ele>2633.2</ele></trkpt>
      <trkpt lat="47.1020160" lon="10.3681130"><ele>2632.2</ele></trkpt>
      <trkpt lat="47.1018930" lon="10.3678430"><ele>2631.6</ele></trkpt>
      <trkpt lat="47.1020600" lon="10.3674080"><ele>2630.7</ele></trkpt>
      <trkpt lat="47.1021510" lon="10.3672400"><ele>2630.3</ele></trkpt>
      <trkpt lat="47.1023800" lon="10.3665330"><ele>2618.1</ele></trkpt>
      <trkpt lat="47.1024630" lon="10.3663950"><ele>2614.8</ele></trkpt>
      <trkpt lat="47.1027060" lon="10.3661480"><ele>2606.8</ele></trkpt>
      <trkpt lat="47.1028510" lon="10.3660940"><ele>2602.7</ele></trkpt>
      <trkpt lat="47.1029660" lon="10.3659670"><ele>2598.9</ele></trkpt>
      <trkpt lat="47.1030380" lon="10.3657780"><ele>2594.9</ele></trkpt>
      <trkpt lat="47.1030790" lon="10.3655820"><ele>2591.1</ele></trkpt>
      <trkpt lat="47.1032600" lon="10.3654330"><ele>2585.5</ele></trkpt>
      <trkpt lat="47.1035130" lon="10.3653070"><ele>2578.3</ele></trkpt>
      <trkpt lat="47.1035690" lon="10.3651580"><ele>2575.1</ele></trkpt>
      <trkpt lat="47.1036240" lon="10.3651370"><ele>2573.5</ele></trkpt>
      <trkpt lat="47.1038150" lon="10.3649000"><ele>2566.7</ele></trkpt>
      <trkpt lat="47.1039060" lon="10.3648500"><ele>2564.1</ele></trkpt>
      <trkpt lat="47.1045840" lon="10.3646460"><ele>2545.2</ele></trkpt>
      <trkpt lat="47.1047260" lon="10.3645710"><ele>2541.0</ele></trkpt>
      <trkpt lat="47.1048890" lon="10.3642190"><ele>2533.1</ele></trkpt>
      <trkpt lat="47.1049510" lon="10.3639540"><ele>2527.0</ele></trkpt>
      <trkpt lat="47.1050500" lon="10.3634400"><ele>2515.1</ele></trkpt>
      <trkpt lat="47.1050190" lon="10.3632360"><ele>2510.5</ele></trkpt>
      <trkpt lat="47.1051390" lon="10.3630400"><ele>2504.6</ele></trkpt>
      <trkpt lat="47.1055510" lon="10.3626500"><ele>2488.6</ele></trkpt>
      <trkpt lat="47.1057210" lon="10.3622240"><ele>2477.6</ele></trkpt>
      <trkpt lat="47.1057050" lon="10.3619800"><ele>2472.5</ele></trkpt>
      <trkpt lat="47.1055400" lon="10.3620940"><ele>2468.0</ele></trkpt>
      <trkpt lat="47.1055320" lon="10.3618960"><ele>2464.6</ele></trkpt>
      <trkpt lat="47.1054320" lon="10.3619420"><ele>2462.1</ele></trkpt>
      <trkpt lat="47.1054070" lon="10.3618600"><ele>2460.5</ele></trkpt>
      <trkpt lat="47.1054020" lon="10.3616280"><ele>2456.6</ele></trkpt>
      <trkpt lat="47.1053810" lon="10.3616160"><ele>2456.1</ele></trkpt>
      <trkpt lat="47.1053720" lon="10.3615480"><ele>2454.9</ele></trkpt>
      <trkpt lat="47.1053920" lon="10.3615040"><ele>2454.0</ele></trkpt>
      <trkpt lat="47.1053530" lon="10.3614810"><ele>2453.0</ele></trkpt>
      <trkpt lat="47.1053780" lon="10.3613820"><ele>2451.2</ele></trkpt>
      <trkpt lat="47.1053610" lon="10.3612410"><ele>2448.8</ele></trkpt>
      <trkpt lat="47.1053100" lon="10.3610880"><ele>2446.0</ele></trkpt>
      <trkpt lat="47.1052700" lon="10.3606360"><ele>2438.3</ele></trkpt>
      <trkpt lat="47.1052700" lon="10.3603680"><ele>2433.8</ele></trkpt>
      <trkpt lat="47.1053990" lon="10.3599550"><ele>2426.6</ele></trkpt>
      <trkpt lat="47.1054010" lon="10.3594480"><ele>2419.4</ele></trkpt>
      <trkpt lat="47.1054400" lon="10.3591850"><ele>2415.6</ele></trkpt>
      <trkpt lat="47.1056360" lon="10.3588910"><ele>2409.7</ele></trkpt>
      <trkpt lat="47.1056640" lon="10.3587180"><ele>2407.2</ele></trkpt>
      <trkpt lat="47.1058300" lon="10.3584510"><ele>2402.1</ele></trkpt>
      <trkpt lat="47.1058990" lon="10.3582620"><ele>2399.0</ele></trkpt>
      <trkpt lat="47.1059180" lon="10.3581290"><ele>2397.1</ele></trkpt>
      <trkpt lat="47.1058940" lon="10.3581000"><ele>2396.4</ele></trkpt>
      <trkpt lat="47.1059490" lon="10.3579180"><ele>2393.6</ele></trkpt>
      <trkpt lat="47.1058520" lon="10.3574770"><ele>2389.5</ele></trkpt>
      <trkpt lat="47.1058580" lon="10.3573470"><ele>2388.6</ele></trkpt>
      <trkpt lat="47.1058420" lon="10.3573540"><ele>2388.4</ele></trkpt>
      <trkpt lat="47.1058240" lon="10.3572080"><ele>2387.5</ele></trkpt>
      <trkpt lat="47.1057510" lon="10.3572490"><ele>2386.7</ele></trkpt>
      <trkpt lat="47.1057330" lon="10.3571410"><ele>2386.0</ele></trkpt>
      <trkpt lat="47.1057410" lon="10.3570360"><ele>2385.3</ele></trkpt>
      <trkpt lat="47.1058930" lon="10.3567600"><ele>2382.9</ele></trkpt>
      <trkpt lat="47.1059920" lon="10.3562910"><ele>2379.7</ele></trkpt>
      <trkpt lat="47.1059970" lon="10.3562620"><ele>2379.5</ele></trkpt>
      <trkpt lat="47.1059810" lon="10.3559850"><ele>2377.7</ele></trkpt>
      <trkpt lat="47.1059670" lon="10.3558340"><ele>2376.6</ele></trkpt>
  </trkseg></trk>
</gpx>