<?xml version="1.0" encoding="UTF-8"?>
<gpx version="1.1" creator="Haus Meli Split" xmlns="http://www.topografix.com/GPX/1/1">
  <metadata><name>Durrich Alpe → Haus Meli</name></metadata>
  <trk><name>Durrich Alpe → Haus Meli</name><trkseg>
      <trkpt lat="47.0852550" lon="10.3939600"><ele>1890.2</ele></trkpt>
      <trkpt lat="47.0851580" lon="10.3939880"><ele>1888.6</ele></trkpt>
      <trkpt lat="47.0850100" lon="10.3938520"><ele>1885.7</ele></trkpt>
      <trkpt lat="47.0849830" lon="10.3937850"><ele>1884.8</ele></trkpt>
      <trkpt lat="47.0849410" lon="10.3938000"><ele>1884.1</ele></trkpt>
      <trkpt lat="47.0849620" lon="10.3932610"><ele>1878.0</ele></trkpt>
      <trkpt lat="47.0848020" lon="10.3932290"><ele>1875.3</ele></trkpt>
      <trkpt lat="47.0847710" lon="10.3931830"><ele>1874.6</ele></trkpt>
      <trkpt lat="47.0846840" lon="10.3931710"><ele>1873.2</ele></trkpt>
      <trkpt lat="47.0844160" lon="10.3932650"><ele>1868.6</ele></trkpt>
      <trkpt lat="47.0842930" lon="10.3932180"><ele>1866.5</ele></trkpt>
      <trkpt lat="47.0841530" lon="10.3932510"><ele>1864.1</ele></trkpt>
      <trkpt lat="47.0840920" lon="10.3932050"><ele>1862.9</ele></trkpt>
      <trkpt lat="47.0840100" lon="10.3929830"><ele>1860.0</ele></trkpt>
      <trkpt lat="47.0839600" lon="10.3929600"><ele>1859.1</ele></trkpt>
      <trkpt lat="47.0839040" lon="10.3930140"><ele>1858.0</ele></trkpt>
      <trkpt lat="47.0838490" lon="10.3930080"><ele>1857.1</ele></trkpt>
      <trkpt lat="47.0838170" lon="10.3929650"><ele>1856.3</ele></trkpt>
      <trkpt lat="47.0835110" lon="10.3930730"><ele>1851.0</ele></trkpt>
      <trkpt lat="47.0834130" lon="10.3930230"><ele>1849.2</ele></trkpt>
      <trkpt lat="47.0831650" lon="10.3933600"><ele>1843.5</ele></trkpt>
      <trkpt lat="47.0831200" lon="10.3933560"><ele>1842.8</ele></trkpt>
      <trkpt lat="47.0830480" lon="10.3934940"><ele>1840.8</ele></trkpt>
      <trkpt lat="47.0822860" lon="10.3944300"><ele>1822.7</ele></trkpt>
      <trkpt lat="47.0821410" lon="10.3946670"><ele>1818.7</ele></trkpt>
      <trkpt lat="47.0820890" lon="10.3946750"><ele>1817.7</ele></trkpt>
      <trkpt lat="47.0820460" lon="10.3946180"><ele>1816.6</ele></trkpt>
      <trkpt lat="47.0820500" lon="10.3945390"><ele>1815.6</ele></trkpt>
      <trkpt lat="47.0821460" lon="10.3943170"><ele>1812.3</ele></trkpt>
      <trkpt lat="47.0820820" lon="10.3943270"><ele>1811.2</ele></trkpt>
      <trkpt lat="47.0815790" lon="10.3947550"><ele>1798.0</ele></trkpt>
      <trkpt lat="47.0814340" lon="10.3947800"><ele>1793.9</ele></trkpt>
      <trkpt lat="47.0812120" lon="10.3946260"><ele>1786.9</ele></trkpt>
      <trkpt lat="47.0809480" lon="10.3945430"><ele>1779.3</ele></trkpt>
      <trkpt lat="47.0805190" lon="10.3947170"><ele>1766.8</ele></trkpt>
      <trkpt lat="47.0804880" lon="10.3946180"><ele>1764.7</ele></trkpt>
      <trkpt lat="47.0804020" lon="10.3947020"><ele>1761.7</ele></trkpt>
      <trkpt lat="47.0804360" lon="10.3943880"><ele>1755.6</ele></trkpt>
      <trkpt lat="47.0804200" lon="10.3942150"><ele>1751.8</ele></trkpt>
      <trkpt lat="47.0803850" lon="10.3941800"><ele>1750.3</ele></trkpt>
      <trkpt lat="47.0802470" lon="10.3946650"><ele>1737.8</ele></trkpt>
      <trkpt lat="47.0801380" lon="10.3946310"><ele>1733.9</ele></trkpt>
      <trkpt lat="47.0800420" lon="10.3945590"><ele>1730.1</ele></trkpt>
      <trkpt lat="47.0799650" lon="10.3946890"><ele>1726.0</ele></trkpt>
      <trkpt lat="47.0799010" lon="10.3947140"><ele>1723.7</ele></trkpt>
      <trkpt lat="47.0798520" lon="10.3946260"><ele>1721.0</ele></trkpt>
      <trkpt lat="47.0797460" lon="10.3946210"><ele>1717.3</ele></trkpt>
      <trkpt lat="47.0796760" lon="10.3945800"><ele>1714.6</ele></trkpt>
      <trkpt lat="47.0796370" lon="10.3947250"><ele>1710.9</ele></trkpt>
      <trkpt lat="47.0795520" lon="10.3948960"><ele>1705.9</ele></trkpt>
      <trkpt lat="47.0794810" lon="10.3950150"><ele>1702.1</ele></trkpt>
      <trkpt lat="47.0793760" lon="10.3951030"><ele>1697.9</ele></trkpt>
      <trkpt lat="47.0789520" lon="10.3959730"><ele>1673.9</ele></trkpt>
      <trkpt lat="47.0788920" lon="10.3960040"><ele>1671.9</ele></trkpt>
      <trkpt lat="47.0787410" lon="10.3957510"><ele>1664.5</ele></trkpt>
      <trkpt lat="47.0786980" lon="10.3955800"><ele>1660.5</ele></trkpt>
      <trkpt lat="47.0786350" lon="10.3955170"><ele>1658.1</ele></trkpt>
      <trkpt lat="47.0785500" lon="10.3951910"><ele>1650.5</ele></trkpt>
      <trkpt lat="47.0784370" lon="10.3950670"><ele>1645.9</ele></trkpt>
      <trkpt lat="47.0783310" lon="10.3950510"><ele>1642.5</ele></trkpt>
      <trkpt lat="47.0781620" lon="10.3949370"><ele>1636.5</ele></trkpt>
      <trkpt lat="47.0779310" lon="10.3949760"><ele>1629.4</ele></trkpt>
      <trkpt lat="47.0779040" lon="10.3950990"><ele>1626.8</ele></trkpt>
      <trkpt lat="47.0778280" lon="10.3951070"><ele>1624.5</ele></trkpt>
      <trkpt lat="47.0777670" lon="10.3949710"><ele>1621.2</ele></trkpt>
      <trkpt lat="47.0776960" lon="10.3949250"><ele>1618.9</ele></trkpt>
      <trkpt lat="47.0776770" lon="10.3949830"><ele>1617.6</ele></trkpt>
      <trkpt lat="47.0777510" lon="10.3952140"><ele>1612.4</ele></trkpt>
      <trkpt lat="47.0777870" lon="10.3958310"><ele>1599.8</ele></trkpt>
      <trkpt lat="47.0777710" lon="10.3960330"><ele>1595.7</ele></trkpt>
      <trkpt lat="47.0775800" lon="10.3960460"><ele>1590.0</ele></trkpt>
      <trkpt lat="47.0774810" lon="10.3960920"><ele>1586.9</ele></trkpt>
      <trkpt lat="47.0774340" lon="10.3962800"><ele>1582.8</ele></trkpt>
      <trkpt lat="47.0773160" lon="10.3962930"><ele>1579.2</ele></trkpt>
      <trkpt lat="47.0770730" lon="10.3965900"><ele>1568.0</ele></trkpt>
      <trkpt lat="47.0770040" lon="10.3965020"><ele>1564.7</ele></trkpt>
      <trkpt lat="47.0769130" lon="10.3965480"><ele>1561.3</ele></trkpt>
      <trkpt lat="47.0768220" lon="10.3966570"><ele>1557.1</ele></trkpt>
      <trkpt lat="47.0767090" lon="10.3963230"><ele>1548.1</ele></trkpt>
      <trkpt lat="47.0766320" lon="10.3965050"><ele>1543.0</ele></trkpt>
      <trkpt lat="47.0765600" lon="10.3965530"><ele>1540.2</ele></trkpt>
      <trkpt lat="47.0763380" lon="10.3966570"><ele>1531.9</ele></trkpt>
      <trkpt lat="47.0761580" lon="10.3968800"><ele>1523.6</ele></trkpt>
      <trkpt lat="47.0760310" lon="10.3971980"><ele>1514.9</ele></trkpt>
      <trkpt lat="47.0758230" lon="10.3972450"><ele>1508.7</ele></trkpt>
      <trkpt lat="47.0757100" lon="10.3973460"><ele>1504.7</ele></trkpt>
      <trkpt lat="47.0756320" lon="10.3974970"><ele>1500.9</ele></trkpt>
      <trkpt lat="47.0756380" lon="10.3977770"><ele>1495.2</ele></trkpt>
      <trkpt lat="47.0755720" lon="10.3977700"><ele>1493.3</ele></trkpt>
      <trkpt lat="47.0754620" lon="10.3975490"><ele>1487.7</ele></trkpt>
      <trkpt lat="47.0754430" lon="10.3974690"><ele>1486.0</ele></trkpt>
      <trkpt lat="47.0754540" lon="10.3973130"><ele>1482.9</ele></trkpt>
      <trkpt lat="47.0747400" lon="10.3973440"><ele>1462.0</ele></trkpt>
      <trkpt lat="47.0744430" lon="10.3973210"><ele>1455.6</ele></trkpt>
      <trkpt lat="47.0742500" lon="10.3980220"><ele>1444.6</ele></trkpt>
      <trkpt lat="47.0742210" lon="10.3982420"><ele>1441.4</ele></trkpt>
      <trkpt lat="47.0742350" lon="10.3983130"><ele>1440.3</ele></trkpt>
      <trkpt lat="47.0744250" lon="10.3985770"><ele>1434.7</ele></trkpt>
      <trkpt lat="47.0745580" lon="10.3988360"><ele>1430.0</ele></trkpt>
      <trkpt lat="47.0748680" lon="10.3990020"><ele>1423.9</ele></trkpt>
      <trkpt lat="47.0749260" lon="10.3991100"><ele>1423.2</ele></trkpt>
      <trkpt lat="47.0749280" lon="10.3991980"><ele>1422.7</ele></trkpt>
      <trkpt lat="47.0749040" lon="10.3992390"><ele>1422.5</ele></trkpt>
      <trkpt lat="47.0748430" lon="10.3992360"><ele>1422.0</ele></trkpt>
      <trkpt lat="47.0747000" lon="10.3990760"><ele>1420.7</ele></trkpt>
      <trkpt lat="47.0744940" lon="10.3990190"><ele>1419.1</ele></trkpt>
      <trkpt lat="47.0742490" lon="10.3988310"><ele>1417.1</ele></trkpt>
      <trkpt lat="47.0741620" lon="10.3988220"><ele>1416.4</ele></trkpt>
      <trkpt lat="47.0739170" lon="10.3988760"><ele>1414.6</ele></trkpt>
      <trkpt lat="47.0740130" lon="10.3989220"><ele>1413.9</ele></trkpt>
      <trkpt lat="47.0741830" lon="10.3988830"><ele>1412.6</ele></trkpt>
      <trkpt lat="47.0742820" lon="10.3989210"><ele>1411.8</ele></trkpt>
      <trkpt lat="47.0743890" lon="10.3990730"><ele>1410.9</ele></trkpt>
      <trkpt lat="47.0745740" lon="10.3991710"><ele>1410.3</ele></trkpt>
      <trkpt lat="47.0746590" lon="10.3992480"><ele>1409.9</ele></trkpt>
      <trkpt lat="47.0747380" lon="10.3994830"><ele>1409.3</ele></trkpt>
      <trkpt lat="47.0747620" lon="10.3996560"><ele>1408.9</ele></trkpt>
      <trkpt lat="47.0747390" lon="10.3997550"><ele>1408.7</ele></trkpt>
      <trkpt lat="47.0746750" lon="10.3998420"><ele>1408.4</ele></trkpt>
      <trkpt lat="47.0745020" lon="10.3999890"><ele>1407.7</ele></trkpt>
      <trkpt lat="47.0744020" lon="10.4001760"><ele>1407.2</ele></trkpt>
      <trkpt lat="47.0744080" lon="10.4004640"><ele>1406.5</ele></trkpt>
      <trkpt lat="47.0746970" lon="10.4011880"><ele>1403.1</ele></trkpt>
      <trkpt lat="47.0747510" lon="10.4014640"><ele>1400.3</ele></trkpt>
      <trkpt lat="47.0748550" lon="10.4017140"><ele>1397.3</ele></trkpt>
      <trkpt lat="47.0746620" lon="10.4016920"><ele>1394.5</ele></trkpt>
      <trkpt lat="47.0745950" lon="10.4016380"><ele>1393.4</ele></trkpt>
      <trkpt lat="47.0745390" lon="10.4014900"><ele>1391.7</ele></trkpt>
      <trkpt lat="47.0745120" lon="10.4012990"><ele>1389.7</ele></trkpt>
      <trkpt lat="47.0744490" lon="10.4012180"><ele>1388.5</ele></trkpt>
      <trkpt lat="47.0742830" lon="10.4011380"><ele>1386.0</ele></trkpt>
      <trkpt lat="47.0742230" lon="10.4010290"><ele>1384.6</ele></trkpt>
      <trkpt lat="47.0742300" lon="10.4008070"><ele>1382.3</ele></trkpt>
      <trkpt lat="47.0740640" lon="10.4004230"><ele>1377.6</ele></trkpt>
      <trkpt lat="47.0739800" lon="10.4003690"><ele>1375.8</ele></trkpt>
      <trkpt lat="47.0740070" lon="10.4007100"><ele>1371.4</ele></trkpt>
      <trkpt lat="47.0739450" lon="10.4009480"><ele>1368.1</ele></trkpt>
      <trkpt lat="47.0740170" lon="10.4011560"><ele>1365.1</ele></trkpt>
      <trkpt lat="47.0739440" lon="10.4011140"><ele>1363.6</ele></trkpt>
      <trkpt lat="47.0738160" lon="10.4009320"><ele>1360.3</ele></trkpt>
      <trkpt lat="47.0738020" lon="10.4009800"><ele>1359.6</ele></trkpt>
      <trkpt lat="47.0738610" lon="10.4012310"><ele>1356.2</ele></trkpt>
      <trkpt lat="47.0738590" lon="10.4013790"><ele>1354.3</ele></trkpt>
      <trkpt lat="47.0738220" lon="10.4015180"><ele>1352.4</ele></trkpt>
      <trkpt lat="47.0735330" lon="10.4018570"><ele>1345.4</ele></trkpt>
      <trkpt lat="47.0734750" lon="10.4019990"><ele>1343.3</ele></trkpt>
      <trkpt lat="47.0733730" lon="10.4021600"><ele>1340.6</ele></trkpt>
      <trkpt lat="47.0732700" lon="10.4024610"><ele>1336.4</ele></trkpt>
      <trkpt lat="47.0732350" lon="10.4024990"><ele>1335.6</ele></trkpt>
      <trkpt lat="47.0732020" lon="10.4024540"><ele>1334.8</ele></trkpt>
      <trkpt lat="47.0730710" lon="10.4021380"><ele>1330.2</ele></trkpt>
      <trkpt lat="47.0730500" lon="10.4020220"><ele>1328.7</ele></trkpt>
      <trkpt lat="47.0730780" lon="10.4018670"><ele>1326.7</ele></trkpt>
      <trkpt lat="47.0729680" lon="10.4019970"><ele>1324.1</ele></trkpt>
      <trkpt lat="47.0728890" lon="10.4021600"><ele>1321.7</ele></trkpt>
      <trkpt lat="47.0727920" lon="10.4025350"><ele>1316.7</ele></trkpt>
      <trkpt lat="47.0728350" lon="10.4026690"><ele>1314.9</ele></trkpt>
      <trkpt lat="47.0727910" lon="10.4026770"><ele>1314.0</ele></trkpt>
      <trkpt lat="47.0727190" lon="10.4026620"><ele>1312.7</ele></trkpt>
      <trkpt lat="47.0726520" lon="10.4025900"><ele>1311.2</ele></trkpt>
      <trkpt lat="47.0725070" lon="10.4021640"><ele>1305.3</ele></trkpt>
      <trkpt lat="47.0724990" lon="10.4018530"><ele>1301.4</ele></trkpt>
      <trkpt lat="47.0726180" lon="10.4016800"><ele>1298.3</ele></trkpt>
      <trkpt lat="47.0726340" lon="10.4015750"><ele>1297.0</ele></trkpt>
      <trkpt lat="47.0726170" lon="10.4015130"><ele>1296.2</ele></trkpt>
      <trkpt lat="47.0724480" lon="10.4015840"><ele>1292.9</ele></trkpt>
      <trkpt lat="47.0720100" lon="10.4016300"><ele>1284.9</ele></trkpt>
      <trkpt lat="47.0719240" lon="10.4015970"><ele>1283.3</ele></trkpt>
      <trkpt lat="47.0717690" lon="10.4014600"><ele>1280.0</ele></trkpt>
      <trkpt lat="47.0716520" lon="10.4015690"><ele>1277.7</ele></trkpt>
      <trkpt lat="47.0716300" lon="10.4016990"><ele>1276.3</ele></trkpt>
      <trkpt lat="47.0715840" lon="10.4017270"><ele>1275.5</ele></trkpt>
      <trkpt lat="47.0715640" lon="10.4018800"><ele>1273.9</ele></trkpt>
      <trkpt lat="47.0715310" lon="10.4019400"><ele>1273.1</ele></trkpt>
      <trkpt lat="47.0714690" lon="10.4025670"><ele>1266.5</ele></trkpt>
      <trkpt lat="47.0713690" lon="10.4023660"><ele>1263.9</ele></trkpt>
      <trkpt lat="47.0713040" lon="10.4020690"><ele>1260.7</ele></trkpt>
      <trkpt lat="47.0711750" lon="10.4018350"><ele>1257.6</ele></trkpt>
      <trkpt lat="47.0711440" lon="10.4017220"><ele>1256.3</ele></trkpt>
      <trkpt lat="47.0711540" lon="10.4016610"><ele>1255.6</ele></trkpt>
      <trkpt lat="47.0713990" lon="10.4011560"><ele>1249.5</ele></trkpt>
      <trkpt lat="47.0714040" lon="10.4010720"><ele>1248.7</ele></trkpt>
      <trkpt lat="47.0713860" lon="10.4010210"><ele>1248.2</ele></trkpt>
      <trkpt lat="47.0713500" lon="10.4010080"><ele>1247.7</ele></trkpt>
      <trkpt lat="47.0713080" lon="10.4010320"><ele>1247.1</ele></trkpt>
      <trkpt lat="47.0710910" lon="10.4014300"><ele>1242.4</ele></trkpt>
      <trkpt lat="47.0707880" lon="10.4018690"><ele>1236.6</ele></trkpt>
      <trkpt lat="47.0706550" lon="10.4021900"><ele>1233.2</ele></trkpt>
      <trkpt lat="47.0706070" lon="10.4024530"><ele>1230.7</ele></trkpt>
      <trkpt lat="47.0705570" lon="10.4025110"><ele>1229.8</ele></trkpt>
      <trkpt lat="47.0704980" lon="10.4024910"><ele>1229.0</ele></trkpt>
      <trkpt lat="47.0704870" lon="10.4023810"><ele>1228.0</ele></trkpt>
      <trkpt lat="47.0706660" lon="10.4017340"><ele>1223.1</ele></trkpt>
      <trkpt lat="47.0706740" lon="10.4016220"><ele>1222.3</ele></trkpt>
      <trkpt lat="47.0706410" lon="10.4013950"><ele>1220.7</ele></trkpt>
      <trkpt lat="47.0705470" lon="10.4011000"><ele>1218.5</ele></trkpt>
      <trkpt lat="47.0702080" lon="10.4004350"><ele>1212.9</ele></trkpt>
      <trkpt lat="47.0701480" lon="10.4002390"><ele>1211.4</ele></trkpt>
      <trkpt lat="47.0702380" lon="10.3998430"><ele>1209.4</ele></trkpt>
      <trkpt lat="47.0702340" lon="10.3997420"><ele>1209.4</ele></trkpt>
      <trkpt lat="47.0701940" lon="10.3996480"><ele>1209.4</ele></trkpt>
      <trkpt lat="47.0700890" lon="10.3993930"><ele>1209.4</ele></trkpt>
      <trkpt lat="47.0699660" lon="10.3987220"><ele>1209.4</ele></trkpt>
  </trkseg></trk>
</gpx>