<?xml version="1.0" encoding="UTF-8"?>
<gpx version="1.1" creator="Haus Meli Split" xmlns="http://www.topografix.com/GPX/1/1">
  <metadata><name>Edmund-Graf-Hütte → Hoher Riffler</name></metadata>
  <trk><name>Edmund-Graf-Hütte → Hoher Riffler</name><trkseg>
      <trkpt lat="47.1059810" lon="10.3559850"><ele>2377.4</ele></trkpt>
      <trkpt lat="47.1060020" lon="10.3559850"><ele>2377.6</ele></trkpt>
      <trkpt lat="47.1061310" lon="10.3562340"><ele>2379.7</ele></trkpt>
      <trkpt lat="47.1061870" lon="10.3562840"><ele>2380.3</ele></trkpt>
      <trkpt lat="47.1062060" lon="10.3562530"><ele>2380.6</ele></trkpt>
      <trkpt lat="47.1063260" lon="10.3564040"><ele>2382.1</ele></trkpt>
      <trkpt lat="47.1064200" lon="10.3565800"><ele>2383.6</ele></trkpt>
      <trkpt lat="47.1064630" lon="10.3566110"><ele>2384.1</ele></trkpt>
      <trkpt lat="47.1065020" lon="10.3564410"><ele>2385.3</ele></trkpt>
      <trkpt lat="47.1066080" lon="10.3565270"><ele>2386.5</ele></trkpt>
      <trkpt lat="47.1066180" lon="10.3564700"><ele>2386.9</ele></trkpt>
      <trkpt lat="47.1065770" lon="10.3563370"><ele>2388.8</ele></trkpt>
      <trkpt lat="47.1065880" lon="10.3562670"><ele>2389.9</ele></trkpt>
      <trkpt lat="47.1066530" lon="10.3561530"><ele>2392.2</ele></trkpt>
      <trkpt lat="47.1067530" lon="10.3561670"><ele>2394.4</ele></trkpt>
      <trkpt lat="47.1069060" lon="10.3563220"><ele>2398.5</ele></trkpt>
      <trkpt lat="47.1069490" lon="10.3565630"><ele>2402.3</ele></trkpt>
      <trkpt lat="47.1069910" lon="10.3565990"><ele>2403.4</ele></trkpt>
      <trkpt lat="47.1070290" lon="10.3565560"><ele>2404.4</ele></trkpt>
      <trkpt lat="47.1070750" lon="10.3565910"><ele>2405.6</ele></trkpt>
      <trkpt lat="47.1071620" lon="10.3563970"><ele>2409.1</ele></trkpt>
      <trkpt lat="47.1073220" lon="10.3563880"><ele>2412.7</ele></trkpt>
      <trkpt lat="47.1073750" lon="10.3564260"><ele>2414.0</ele></trkpt>
      <trkpt lat="47.1074050" lon="10.3565070"><ele>2415.4</ele></trkpt>
      <trkpt lat="47.1073970" lon="10.3567300"><ele>2418.8</ele></trkpt>
      <trkpt lat="47.1075380" lon="10.3567930"><ele>2422.0</ele></trkpt>
      <trkpt lat="47.1076450" lon="10.3567820"><ele>2424.4</ele></trkpt>
      <trkpt lat="47.1077510" lon="10.3568780"><ele>2427.2</ele></trkpt>
      <trkpt lat="47.1077950" lon="10.3569550"><ele>2428.5</ele></trkpt>
      <trkpt lat="47.1077620" lon="10.3571140"><ele>2430.7</ele></trkpt>
      <trkpt lat="47.1078560" lon="10.3571890"><ele>2432.7</ele></trkpt>
      <trkpt lat="47.1078950" lon="10.3572730"><ele>2434.0</ele></trkpt>
      <trkpt lat="47.1079200" lon="10.3575500"><ele>2437.7</ele></trkpt>
      <trkpt lat="47.1079790" lon="10.3575960"><ele>2439.0</ele></trkpt>
      <trkpt lat="47.1080810" lon="10.3575950"><ele>2440.9</ele></trkpt>
      <trkpt lat="47.1081430" lon="10.3577070"><ele>2442.8</ele></trkpt>
      <trkpt lat="47.1082060" lon="10.3576910"><ele>2444.0</ele></trkpt>
      <trkpt lat="47.1082720" lon="10.3577840"><ele>2445.8</ele></trkpt>
      <trkpt lat="47.1084070" lon="10.3577410"><ele>2448.4</ele></trkpt>
      <trkpt lat="47.1084910" lon="10.3577670"><ele>2450.1</ele></trkpt>
      <trkpt lat="47.1086970" lon="10.3577440"><ele>2454.0</ele></trkpt>
      <trkpt lat="47.1089200" lon="10.3578420"><ele>2458.5</ele></trkpt>
      <trkpt lat="47.1089920" lon="10.3577620"><ele>2460.2</ele></trkpt>
      <trkpt lat="47.1090410" lon="10.3576120"><ele>2462.4</ele></trkpt>
      <trkpt lat="47.1091370" lon="10.3575940"><ele>2464.2</ele></trkpt>
      <trkpt lat="47.1091830" lon="10.3575210"><ele>2465.5</ele></trkpt>
      <trkpt lat="47.1093110" lon="10.3574640"><ele>2468.1</ele></trkpt>
      <trkpt lat="47.1093560" lon="10.3574140"><ele>2469.2</ele></trkpt>
      <trkpt lat="47.1094170" lon="10.3574880"><ele>2470.7</ele></trkpt>
      <trkpt lat="47.1095760" lon="10.3574280"><ele>2473.8</ele></trkpt>
      <trkpt lat="47.1096770" lon="10.3573200"><ele>2476.2</ele></trkpt>
      <trkpt lat="47.1097230" lon="10.3571340"><ele>2478.8</ele></trkpt>
      <trkpt lat="47.1097520" lon="10.3568430"><ele>2482.6</ele></trkpt>
      <trkpt lat="47.1099120" lon="10.3565370"><ele>2487.6</ele></trkpt>
      <trkpt lat="47.1100530" lon="10.3563430"><ele>2491.3</ele></trkpt>
      <trkpt lat="47.1100960" lon="10.3563700"><ele>2492.2</ele></trkpt>
      <trkpt lat="47.1101570" lon="10.3566620"><ele>2496.3</ele></trkpt>
      <trkpt lat="47.1101860" lon="10.3566880"><ele>2497.3</ele></trkpt>
      <trkpt lat="47.1102140" lon="10.3566030"><ele>2499.0</ele></trkpt>
      <trkpt lat="47.1103330" lon="10.3565530"><ele>2502.4</ele></trkpt>
      <trkpt lat="47.1104520" lon="10.3567230"><ele>2506.9</ele></trkpt>
      <trkpt lat="47.1105940" lon="10.3567120"><ele>2510.8</ele></trkpt>
      <trkpt lat="47.1106570" lon="10.3569770"><ele>2516.0</ele></trkpt>
      <trkpt lat="47.1108280" lon="10.3572810"><ele>2523.4</ele></trkpt>
      <trkpt lat="47.1109160" lon="10.3573350"><ele>2526.0</ele></trkpt>
      <trkpt lat="47.1109450" lon="10.3572820"><ele>2527.3</ele></trkpt>
      <trkpt lat="47.1109990" lon="10.3572540"><ele>2528.8</ele></trkpt>
      <trkpt lat="47.1110080" lon="10.3571790"><ele>2530.2</ele></trkpt>
      <trkpt lat="47.1111140" lon="10.3571470"><ele>2533.2</ele></trkpt>
      <trkpt lat="47.1111740" lon="10.3570320"><ele>2535.9</ele></trkpt>
      <trkpt lat="47.1112850" lon="10.3573400"><ele>2542.4</ele></trkpt>
      <trkpt lat="47.1114280" lon="10.3575960"><ele>2549.0</ele></trkpt>
      <trkpt lat="47.1114840" lon="10.3574570"><ele>2552.4</ele></trkpt>
      <trkpt lat="47.1115130" lon="10.3572710"><ele>2556.5</ele></trkpt>
      <trkpt lat="47.1115730" lon="10.3572620"><ele>2558.4</ele></trkpt>
      <trkpt lat="47.1117720" lon="10.3574950"><ele>2566.3</ele></trkpt>
      <trkpt lat="47.1117930" lon="10.3574420"><ele>2567.6</ele></trkpt>
      <trkpt lat="47.1118410" lon="10.3574930"><ele>2569.4</ele></trkpt>
      <trkpt lat="47.1118850" lon="10.3573870"><ele>2572.1</ele></trkpt>
      <trkpt lat="47.1120000" lon="10.3574260"><ele>2575.7</ele></trkpt>
      <trkpt lat="47.1120880" lon="10.3575000"><ele>2578.9</ele></trkpt>
      <trkpt lat="47.1121090" lon="10.3575570"><ele>2580.3</ele></trkpt>
      <trkpt lat="47.1121820" lon="10.3575390"><ele>2582.6</ele></trkpt>
      <trkpt lat="47.1123110" lon="10.3576100"><ele>2586.8</ele></trkpt>
      <trkpt lat="47.1123640" lon="10.3578840"><ele>2592.9</ele></trkpt>
      <trkpt lat="47.1123800" lon="10.3584600"><ele>2605.9</ele></trkpt>
      <trkpt lat="47.1125650" lon="10.3595970"><ele>2635.5</ele></trkpt>
      <trkpt lat="47.1129640" lon="10.3598920"><ele>2652.2</ele></trkpt>
      <trkpt lat="47.1129970" lon="10.3602470"><ele>2661.2</ele></trkpt>
      <trkpt lat="47.1129640" lon="10.3610870"><ele>2684.0</ele></trkpt>
      <trkpt lat="47.1130250" lon="10.3614560"><ele>2694.6</ele></trkpt>
      <trkpt lat="47.1133340" lon="10.3619800"><ele>2713.9</ele></trkpt>
      <trkpt lat="47.1138520" lon="10.3626960"><ele>2743.4</ele></trkpt>
      <trkpt lat="47.1139340" lon="10.3635060"><ele>2774.1</ele></trkpt>
      <trkpt lat="47.1140980" lon="10.3637070"><ele>2785.9</ele></trkpt>
      <trkpt lat="47.1139810" lon="10.3639270"><ele>2796.4</ele></trkpt>
      <trkpt lat="47.1141710" lon="10.3643770"><ele>2816.2</ele></trkpt>
      <trkpt lat="47.1142660" lon="10.3643720"><ele>2821.5</ele></trkpt>
      <trkpt lat="47.1143480" lon="10.3645250"><ele>2828.8</ele></trkpt>
      <trkpt lat="47.1142970" lon="10.3647050"><ele>2836.1</ele></trkpt>
      <trkpt lat="47.1146240" lon="10.3648390"><ele>2854.2</ele></trkpt>
      <trkpt lat="47.1147810" lon="10.3651930"><ele>2869.4</ele></trkpt>
      <trkpt lat="47.1147260" lon="10.3652790"><ele>2873.7</ele></trkpt>
      <trkpt lat="47.1148200" lon="10.3654290"><ele>2881.0</ele></trkpt>
      <trkpt lat="47.1149820" lon="10.3654770"><ele>2889.8</ele></trkpt>
      <trkpt lat="47.1149830" lon="10.3655790"><ele>2893.4</ele></trkpt>
      <trkpt lat="47.1150980" lon="10.3656480"><ele>2900.0</ele></trkpt>
      <trkpt lat="47.1153230" lon="10.3656520"><ele>2911.9</ele></trkpt>
      <trkpt lat="47.1153520" lon="10.3658610"><ele>2919.6</ele></trkpt>
      <trkpt lat="47.1152830" lon="10.3660110"><ele>2926.1</ele></trkpt>
      <trkpt lat="47.1153160" lon="10.3661370"><ele>2931.0</ele></trkpt>
      <trkpt lat="47.1154110" lon="10.3661500"><ele>2936.0</ele></trkpt>
      <trkpt lat="47.1153890" lon="10.3662930"><ele>2940.2</ele></trkpt>
      <trkpt lat="47.1155200" lon="10.3663730"><ele>2946.1</ele></trkpt>
      <trkpt lat="47.1155660" lon="10.3665320"><ele>2951.0</ele></trkpt>
      <trkpt lat="47.1155930" lon="10.3666520"><ele>2954.6</ele></trkpt>
      <trkpt lat="47.1155380" lon="10.3668100"><ele>2959.6</ele></trkpt>
      <trkpt lat="47.1156130" lon="10.3669360"><ele>2964.3</ele></trkpt>
      <trkpt lat="47.1157170" lon="10.3669820"><ele>2968.9</ele></trkpt>
      <trkpt lat="47.1155910" lon="10.3672610"><ele>2978.4</ele></trkpt>
      <trkpt lat="47.1155910" lon="10.3674220"><ele>2982.9</ele></trkpt>
      <trkpt lat="47.1156950" lon="10.3675020"><ele>2987.8</ele></trkpt>
      <trkpt lat="47.1154980" lon="10.3680240"><ele>3004.8</ele></trkpt>
      <trkpt lat="47.1156120" lon="10.3689280"><ele>3025.6</ele></trkpt>
      <trkpt lat="47.1153750" lon="10.3698290"><ele>3045.9</ele></trkpt>
      <trkpt lat="47.1154850" lon="10.3699070"><ele>3049.7</ele></trkpt>
      <trkpt lat="47.1153810" lon="10.3703130"><ele>3058.8</ele></trkpt>
      <trkpt lat="47.1156790" lon="10.3707400"><ele>3064.5</ele></trkpt>
      <trkpt lat="47.1159540" lon="10.3709570"><ele>3060.9</ele></trkpt>
  </trkseg></trk>
</gpx>