<?xml version="1.0" encoding="UTF-8"?>
<gpx version="1.1" creator="Haus Meli Split" xmlns="http://www.topografix.com/GPX/1/1">
  <metadata><name>Blankasee → Abzweigung Lichtsee</name></metadata>
  <trk><name>Blankasee → Abzweigung Lichtsee</name><trkseg>
      <trkpt lat="47.0995810" lon="10.3764000"><ele>2408.9</ele></trkpt>
      <trkpt lat="47.0995960" lon="10.3764260"><ele>2408.3</ele></trkpt>
      <trkpt lat="47.0996210" lon="10.3769000"><ele>2400.2</ele></trkpt>
      <trkpt lat="47.0994750" lon="10.3775930"><ele>2390.4</ele></trkpt>
      <trkpt lat="47.0994960" lon="10.3777480"><ele>2388.7</ele></trkpt>
      <trkpt lat="47.0994560" lon="10.3779560"><ele>2386.4</ele></trkpt>
      <trkpt lat="47.0993710" lon="10.3781080"><ele>2384.3</ele></trkpt>
      <trkpt lat="47.0992960" lon="10.3783520"><ele>2381.4</ele></trkpt>
      <trkpt lat="47.0992800" lon="10.3785810"><ele>2378.9</ele></trkpt>
      <trkpt lat="47.0992110" lon="10.3787620"><ele>2376.7</ele></trkpt>
      <trkpt lat="47.0992130" lon="10.3788370"><ele>2375.9</ele></trkpt>
      <trkpt lat="47.0991290" lon="10.3792300"><ele>2371.5</ele></trkpt>
      <trkpt lat="47.0991650" lon="10.3797350"><ele>2366.0</ele></trkpt>
      <trkpt lat="47.0991520" lon="10.3799140"><ele>2364.3</ele></trkpt>
      <trkpt lat="47.0991710" lon="10.3799480"><ele>2363.9</ele></trkpt>
      <trkpt lat="47.0991440" lon="10.3800820"><ele>2362.5</ele></trkpt>
      <trkpt lat="47.0991570" lon="10.3803460"><ele>2359.9</ele></trkpt>
      <trkpt lat="47.0992010" lon="10.3803820"><ele>2359.2</ele></trkpt>
      <trkpt lat="47.0992170" lon="10.3804480"><ele>2358.5</ele></trkpt>
      <trkpt lat="47.0993120" lon="10.3805310"><ele>2357.0</ele></trkpt>
      <trkpt lat="47.0992850" lon="10.3806010"><ele>2356.2</ele></trkpt>
      <trkpt lat="47.0992300" lon="10.3806520"><ele>2355.3</ele></trkpt>
      <trkpt lat="47.0990440" lon="10.3811590"><ele>2349.7</ele></trkpt>
      <trkpt lat="47.0989950" lon="10.3811910"><ele>2348.9</ele></trkpt>
      <trkpt lat="47.0989120" lon="10.3813250"><ele>2347.2</ele></trkpt>
      <trkpt lat="47.0988260" lon="10.3813550"><ele>2345.9</ele></trkpt>
      <trkpt lat="47.0986220" lon="10.3816460"><ele>2341.8</ele></trkpt>
      <trkpt lat="47.0985090" lon="10.3817780"><ele>2339.6</ele></trkpt>
      <trkpt lat="47.0984640" lon="10.3817920"><ele>2338.8</ele></trkpt>
      <trkpt lat="47.0983710" lon="10.3820330"><ele>2335.6</ele></trkpt>
      <trkpt lat="47.0982150" lon="10.3822120"><ele>2332.2</ele></trkpt>
      <trkpt lat="47.0979920" lon="10.3827360"><ele>2325.1</ele></trkpt>
      <trkpt lat="47.0970700" lon="10.3827120"><ele>2309.3</ele></trkpt>
      <trkpt lat="47.0970730" lon="10.3824530"><ele>2306.3</ele></trkpt>
      <trkpt lat="47.0969970" lon="10.3824580"><ele>2304.9</ele></trkpt>
      <trkpt lat="47.0968950" lon="10.3824070"><ele>2303.1</ele></trkpt>
      <trkpt lat="47.0968820" lon="10.3823360"><ele>2302.2</ele></trkpt>
      <trkpt lat="47.0966990" lon="10.3822600"><ele>2298.9</ele></trkpt>
      <trkpt lat="47.0966280" lon="10.3822890"><ele>2297.6</ele></trkpt>
      <trkpt lat="47.0966100" lon="10.3822060"><ele>2296.6</ele></trkpt>
      <trkpt lat="47.0965160" lon="10.3823210"><ele>2294.5</ele></trkpt>
      <trkpt lat="47.0964690" lon="10.3822910"><ele>2293.6</ele></trkpt>
      <trkpt lat="47.0963980" lon="10.3820950"><ele>2291.0</ele></trkpt>
      <trkpt lat="47.0962250" lon="10.3818510"><ele>2286.8</ele></trkpt>
      <trkpt lat="47.0961560" lon="10.3819270"><ele>2285.3</ele></trkpt>
      <trkpt lat="47.0957790" lon="10.3821150"><ele>2278.2</ele></trkpt>
      <trkpt lat="47.0954300" lon="10.3824580"><ele>2266.6</ele></trkpt>
      <trkpt lat="47.0950730" lon="10.3828960"><ele>2253.7</ele></trkpt>
      <trkpt lat="47.0947740" lon="10.3832200"><ele>2243.5</ele></trkpt>
      <trkpt lat="47.0941380" lon="10.3833590"><ele>2225.4</ele></trkpt>
      <trkpt lat="47.0938370" lon="10.3834990"><ele>2216.0</ele></trkpt>
      <trkpt lat="47.0937070" lon="10.3834690"><ele>2212.1</ele></trkpt>
      <trkpt lat="47.0936150" lon="10.3836140"><ele>2208.1</ele></trkpt>
      <trkpt lat="47.0934100" lon="10.3835040"><ele>2201.6</ele></trkpt>
      <trkpt lat="47.0926110" lon="10.3835450"><ele>2177.9</ele></trkpt>
      <trkpt lat="47.0924140" lon="10.3836730"><ele>2171.4</ele></trkpt>
      <trkpt lat="47.0918040" lon="10.3838450"><ele>2152.5</ele></trkpt>
      <trkpt lat="47.0911980" lon="10.3840970"><ele>2133.4</ele></trkpt>
      <trkpt lat="47.0910150" lon="10.3842790"><ele>2126.7</ele></trkpt>
      <trkpt lat="47.0908860" lon="10.3845560"><ele>2119.6</ele></trkpt>
      <trkpt lat="47.0909060" lon="10.3848050"><ele>2113.8</ele></trkpt>
      <trkpt lat="47.0908730" lon="10.3849740"><ele>2109.7</ele></trkpt>
      <trkpt lat="47.0908820" lon="10.3852340"><ele>2103.6</ele></trkpt>
      <trkpt lat="47.0909460" lon="10.3853200"><ele>2100.7</ele></trkpt>
      <trkpt lat="47.0909530" lon="10.3854320"><ele>2098.1</ele></trkpt>
      <trkpt lat="47.0909970" lon="10.3855100"><ele>2095.7</ele></trkpt>
      <trkpt lat="47.0909840" lon="10.3855670"><ele>2094.3</ele></trkpt>
      <trkpt lat="47.0910380" lon="10.3857130"><ele>2090.4</ele></trkpt>
      <trkpt lat="47.0911080" lon="10.3858190"><ele>2087.0</ele></trkpt>
      <trkpt lat="47.0911240" lon="10.3859240"><ele>2084.5</ele></trkpt>
      <trkpt lat="47.0911900" lon="10.3860490"><ele>2080.8</ele></trkpt>
      <trkpt lat="47.0912250" lon="10.3862650"><ele>2075.6</ele></trkpt>
      <trkpt lat="47.0912120" lon="10.3864080"><ele>2072.3</ele></trkpt>
      <trkpt lat="47.0911600" lon="10.3866130"><ele>2067.2</ele></trkpt>
      <trkpt lat="47.0910230" lon="10.3869510"><ele>2058.5</ele></trkpt>
      <trkpt lat="47.0909710" lon="10.3869990"><ele>2057.0</ele></trkpt>
      <trkpt lat="47.0907530" lon="10.3874080"><ele>2048.6</ele></trkpt>
      <trkpt lat="47.0906840" lon="10.3876870"><ele>2043.8</ele></trkpt>
      <trkpt lat="47.0906890" lon="10.3877880"><ele>2042.1</ele></trkpt>
      <trkpt lat="47.0905700" lon="10.3880980"><ele>2036.3</ele></trkpt>
      <trkpt lat="47.0904840" lon="10.3882500"><ele>2033.1</ele></trkpt>
      <trkpt lat="47.0903970" lon="10.3883250"><ele>2030.7</ele></trkpt>
      <trkpt lat="47.0902320" lon="10.3887760"><ele>2022.4</ele></trkpt>
      <trkpt lat="47.0901960" lon="10.3887750"><ele>2021.5</ele></trkpt>
      <trkpt lat="47.0900870" lon="10.3889090"><ele>2018.1</ele></trkpt>
      <trkpt lat="47.0898470" lon="10.3892880"><ele>2012.5</ele></trkpt>
      <trkpt lat="47.0897720" lon="10.3893620"><ele>2011.3</ele></trkpt>
      <trkpt lat="47.0897510" lon="10.3894540"><ele>2010.3</ele></trkpt>
      <trkpt lat="47.0896080" lon="10.3895780"><ele>2008.0</ele></trkpt>
      <trkpt lat="47.0895660" lon="10.3896930"><ele>2006.7</ele></trkpt>
  </trkseg></trk>
</gpx>