<?xml version="1.0" encoding="UTF-8"?>
<gpx version="1.1" creator="Haus Meli Split" xmlns="http://www.topografix.com/GPX/1/1">
  <metadata><name>Durrich Alpe → Lichtsee</name></metadata>
  <trk><name>Durrich Alpe → Lichtsee</name><trkseg>
      <trkpt lat="47.0852550" lon="10.3939600"><ele>1890.2</ele></trkpt>
      <trkpt lat="47.0853790" lon="10.3939230"><ele>1892.3</ele></trkpt>
      <trkpt lat="47.0854450" lon="10.3939190"><ele>1893.4</ele></trkpt>
      <trkpt lat="47.0854850" lon="10.3939620"><ele>1894.2</ele></trkpt>
      <trkpt lat="47.0855530" lon="10.3938050"><ele>1896.3</ele></trkpt>
      <trkpt lat="47.0855540" lon="10.3937260"><ele>1897.2</ele></trkpt>
      <trkpt lat="47.0856100" lon="10.3937800"><ele>1898.3</ele></trkpt>
      <trkpt lat="47.0856280" lon="10.3937570"><ele>1898.8</ele></trkpt>
      <trkpt lat="47.0856530" lon="10.3936020"><ele>1900.9</ele></trkpt>
      <trkpt lat="47.0859020" lon="10.3931270"><ele>1908.9</ele></trkpt>
      <trkpt lat="47.0864440" lon="10.3925650"><ele>1921.8</ele></trkpt>
      <trkpt lat="47.0865050" lon="10.3925290"><ele>1923.1</ele></trkpt>
      <trkpt lat="47.0865720" lon="10.3925420"><ele>1924.4</ele></trkpt>
      <trkpt lat="47.0869120" lon="10.3927540"><ele>1931.7</ele></trkpt>
      <trkpt lat="47.0869930" lon="10.3927900"><ele>1933.3</ele></trkpt>
      <trkpt lat="47.0870770" lon="10.3927850"><ele>1934.6</ele></trkpt>
      <trkpt lat="47.0874850" lon="10.3924370"><ele>1941.8</ele></trkpt>
      <trkpt lat="47.0878090" lon="10.3924480"><ele>1946.7</ele></trkpt>
      <trkpt lat="47.0880770" lon="10.3923460"><ele>1950.9</ele></trkpt>
      <trkpt lat="47.0882810" lon="10.3922170"><ele>1954.3</ele></trkpt>
      <trkpt lat="47.0884230" lon="10.3920390"><ele>1957.1</ele></trkpt>
      <trkpt lat="47.0886150" lon="10.3918980"><ele>1960.4</ele></trkpt>
      <trkpt lat="47.0886410" lon="10.3918100"><ele>1961.4</ele></trkpt>
      <trkpt lat="47.0887180" lon="10.3917130"><ele>1963.1</ele></trkpt>
      <trkpt lat="47.0891100" lon="10.3905840"><ele>1977.7</ele></trkpt>
      <trkpt lat="47.0892310" lon="10.3903530"><ele>1981.1</ele></trkpt>
      <trkpt lat="47.0893150" lon="10.3901200"><ele>1984.1</ele></trkpt>
      <trkpt lat="47.0893180" lon="10.3900520"><ele>1984.9</ele></trkpt>
      <trkpt lat="47.0893480" lon="10.3899890"><ele>1985.8</ele></trkpt>
      <trkpt lat="47.0894560" lon="10.3898890"><ele>1988.0</ele></trkpt>
      <trkpt lat="47.0894830" lon="10.3898020"><ele>1989.1</ele></trkpt>
      <trkpt lat="47.0895660" lon="10.3896930"><ele>1990.9</ele></trkpt>
      <trkpt lat="47.0895130" lon="10.3895660"><ele>1992.4</ele></trkpt>
      <trkpt lat="47.0895160" lon="10.3893300"><ele>1994.7</ele></trkpt>
      <trkpt lat="47.0894890" lon="10.3892230"><ele>1995.8</ele></trkpt>
      <trkpt lat="47.0895220" lon="10.3889590"><ele>1998.4</ele></trkpt>
      <trkpt lat="47.0894890" lon="10.3889420"><ele>1998.9</ele></trkpt>
  </trkseg></trk>
</gpx>