<?xml version="1.0" encoding="UTF-8"?>
<gpx version="1.1" creator="Haus Meli Split" xmlns="http://www.topografix.com/GPX/1/1">
  <metadata><name>Blankasee → Lichtsee</name></metadata>
  <trk><name>Blankasee → Lichtsee</name><trkseg>
      <trkpt lat="47.0995810" lon="10.3764000"><ele>2409.3</ele></trkpt>
      <trkpt lat="47.0995960" lon="10.3764260"><ele>2408.7</ele></trkpt>
      <trkpt lat="47.0996210" lon="10.3769000"><ele>2401.2</ele></trkpt>
      <trkpt lat="47.0994750" lon="10.3775930"><ele>2389.7</ele></trkpt>
      <trkpt lat="47.0994960" lon="10.3777480"><ele>2387.7</ele></trkpt>
      <trkpt lat="47.0994560" lon="10.3779560"><ele>2385.5</ele></trkpt>
      <trkpt lat="47.0993710" lon="10.3781080"><ele>2383.6</ele></trkpt>
      <trkpt lat="47.0992960" lon="10.3783520"><ele>2380.9</ele></trkpt>
      <trkpt lat="47.0992800" lon="10.3785810"><ele>2378.6</ele></trkpt>
      <trkpt lat="47.0992110" lon="10.3787620"><ele>2376.5</ele></trkpt>
      <trkpt lat="47.0992130" lon="10.3788370"><ele>2375.7</ele></trkpt>
      <trkpt lat="47.0991290" lon="10.3792300"><ele>2371.6</ele></trkpt>
      <trkpt lat="47.0991650" lon="10.3797350"><ele>2366.5</ele></trkpt>
      <trkpt lat="47.0991520" lon="10.3799140"><ele>2364.7</ele></trkpt>
      <trkpt lat="47.0991710" lon="10.3799480"><ele>2364.3</ele></trkpt>
      <trkpt lat="47.0991440" lon="10.3800820"><ele>2362.9</ele></trkpt>
      <trkpt lat="47.0991570" lon="10.3803460"><ele>2360.2</ele></trkpt>
      <trkpt lat="47.0992010" lon="10.3803820"><ele>2359.5</ele></trkpt>
      <trkpt lat="47.0992170" lon="10.3804480"><ele>2358.8</ele></trkpt>
      <trkpt lat="47.0993120" lon="10.3805310"><ele>2357.1</ele></trkpt>
      <trkpt lat="47.0992850" lon="10.3806010"><ele>2356.3</ele></trkpt>
      <trkpt lat="47.0992300" lon="10.3806520"><ele>2355.3</ele></trkpt>
      <trkpt lat="47.0990440" lon="10.3811590"><ele>2349.5</ele></trkpt>
      <trkpt lat="47.0989950" lon="10.3811910"><ele>2348.7</ele></trkpt>
      <trkpt lat="47.0989120" lon="10.3813250"><ele>2346.9</ele></trkpt>
      <trkpt lat="47.0988260" lon="10.3813550"><ele>2345.6</ele></trkpt>
      <trkpt lat="47.0986220" lon="10.3816460"><ele>2341.4</ele></trkpt>
      <trkpt lat="47.0985090" lon="10.3817780"><ele>2339.2</ele></trkpt>
      <trkpt lat="47.0984640" lon="10.3817920"><ele>2338.6</ele></trkpt>
      <trkpt lat="47.0983710" lon="10.3820330"><ele>2335.8</ele></trkpt>
      <trkpt lat="47.0982150" lon="10.3822120"><ele>2332.4</ele></trkpt>
      <trkpt lat="47.0979920" lon="10.3827360"><ele>2325.2</ele></trkpt>
      <trkpt lat="47.0970700" lon="10.3827120"><ele>2309.5</ele></trkpt>
      <trkpt lat="47.0970730" lon="10.3824530"><ele>2306.5</ele></trkpt>
      <trkpt lat="47.0969970" lon="10.3824580"><ele>2305.2</ele></trkpt>
      <trkpt lat="47.0968950" lon="10.3824070"><ele>2303.2</ele></trkpt>
      <trkpt lat="47.0968820" lon="10.3823360"><ele>2302.3</ele></trkpt>
      <trkpt lat="47.0966990" lon="10.3822600"><ele>2298.8</ele></trkpt>
      <trkpt lat="47.0966280" lon="10.3822890"><ele>2297.5</ele></trkpt>
      <trkpt lat="47.0966100" lon="10.3822060"><ele>2296.4</ele></trkpt>
      <trkpt lat="47.0965160" lon="10.3823210"><ele>2294.2</ele></trkpt>
      <trkpt lat="47.0964690" lon="10.3822910"><ele>2293.2</ele></trkpt>
      <trkpt lat="47.0963980" lon="10.3820950"><ele>2290.4</ele></trkpt>
      <trkpt lat="47.0962250" lon="10.3818510"><ele>2286.1</ele></trkpt>
      <trkpt lat="47.0961560" lon="10.3819270"><ele>2284.5</ele></trkpt>
      <trkpt lat="47.0957790" lon="10.3821150"><ele>2277.2</ele></trkpt>
      <trkpt lat="47.0954300" lon="10.3824580"><ele>2268.2</ele></trkpt>
      <trkpt lat="47.0950730" lon="10.3828960"><ele>2254.5</ele></trkpt>
      <trkpt lat="47.0947740" lon="10.3832200"><ele>2243.6</ele></trkpt>
      <trkpt lat="47.0941380" lon="10.3833590"><ele>2224.7</ele></trkpt>
      <trkpt lat="47.0938370" lon="10.3834990"><ele>2215.4</ele></trkpt>
      <trkpt lat="47.0937070" lon="10.3834690"><ele>2211.6</ele></trkpt>
      <trkpt lat="47.0936150" lon="10.3836140"><ele>2207.7</ele></trkpt>
      <trkpt lat="47.0934100" lon="10.3835040"><ele>2201.4</ele></trkpt>
      <trkpt lat="47.0926110" lon="10.3835450"><ele>2178.3</ele></trkpt>
      <trkpt lat="47.0924140" lon="10.3836730"><ele>2172.0</ele></trkpt>
      <trkpt lat="47.0918040" lon="10.3838450"><ele>2152.8</ele></trkpt>
      <trkpt lat="47.0911980" lon="10.3840970"><ele>2132.8</ele></trkpt>
      <trkpt lat="47.0910150" lon="10.3842790"><ele>2125.8</ele></trkpt>
      <trkpt lat="47.0908860" lon="10.3845560"><ele>2118.6</ele></trkpt>
      <trkpt lat="47.0909060" lon="10.3848050"><ele>2113.1</ele></trkpt>
      <trkpt lat="47.0908730" lon="10.3849740"><ele>2109.3</ele></trkpt>
      <trkpt lat="47.0908820" lon="10.3852340"><ele>2103.5</ele></trkpt>
      <trkpt lat="47.0909460" lon="10.3853200"><ele>2100.6</ele></trkpt>
      <trkpt lat="47.0909530" lon="10.3854320"><ele>2098.1</ele></trkpt>
      <trkpt lat="47.0909970" lon="10.3855100"><ele>2095.8</ele></trkpt>
      <trkpt lat="47.0909840" lon="10.3855670"><ele>2094.5</ele></trkpt>
      <trkpt lat="47.0910380" lon="10.3857130"><ele>2090.7</ele></trkpt>
      <trkpt lat="47.0911080" lon="10.3858190"><ele>2087.4</ele></trkpt>
      <trkpt lat="47.0911240" lon="10.3859240"><ele>2085.0</ele></trkpt>
      <trkpt lat="47.0911900" lon="10.3860490"><ele>2081.4</ele></trkpt>
      <trkpt lat="47.0912250" lon="10.3862650"><ele>2076.5</ele></trkpt>
      <trkpt lat="47.0912120" lon="10.3864080"><ele>2073.2</ele></trkpt>
      <trkpt lat="47.0911600" lon="10.3866130"><ele>2068.3</ele></trkpt>
      <trkpt lat="47.0910230" lon="10.3869510"><ele>2059.5</ele></trkpt>
      <trkpt lat="47.0909710" lon="10.3869990"><ele>2057.4</ele></trkpt>
      <trkpt lat="47.0907530" lon="10.3874080"><ele>2047.3</ele></trkpt>
      <trkpt lat="47.0906840" lon="10.3876870"><ele>2042.9</ele></trkpt>
      <trkpt lat="47.0906890" lon="10.3877880"><ele>2041.4</ele></trkpt>
      <trkpt lat="47.0905700" lon="10.3880980"><ele>2036.2</ele></trkpt>
      <trkpt lat="47.0904840" lon="10.3882500"><ele>2033.3</ele></trkpt>
      <trkpt lat="47.0903970" lon="10.3883250"><ele>2031.1</ele></trkpt>
      <trkpt lat="47.0902320" lon="10.3887760"><ele>2023.5</ele></trkpt>
      <trkpt lat="47.0901960" lon="10.3887750"><ele>2022.8</ele></trkpt>
      <trkpt lat="47.0900870" lon="10.3889090"><ele>2019.7</ele></trkpt>
      <trkpt lat="47.0898470" lon="10.3892880"><ele>2012.0</ele></trkpt>
      <trkpt lat="47.0897720" lon="10.3893620"><ele>2010.5</ele></trkpt>
      <trkpt lat="47.0897510" lon="10.3894540"><ele>2009.6</ele></trkpt>
      <trkpt lat="47.0896080" lon="10.3895780"><ele>2007.3</ele></trkpt>
      <trkpt lat="47.0895660" lon="10.3896930"><ele>2006.0</ele></trkpt>
      <trkpt lat="47.0895130" lon="10.3895660"><ele>2004.6</ele></trkpt>
      <trkpt lat="47.0895160" lon="10.3893300"><ele>2002.4</ele></trkpt>
      <trkpt lat="47.0894890" lon="10.3892230"><ele>2001.3</ele></trkpt>
      <trkpt lat="47.0895220" lon="10.3889590"><ele>1998.8</ele></trkpt>
      <trkpt lat="47.0894890" lon="10.3889420"><ele>1998.3</ele></trkpt>
  </trkseg></trk>
</gpx>