<?xml version="1.0" encoding="UTF-8"?>
<gpx version="1.1" creator="Haus Meli Split" xmlns="http://www.topografix.com/GPX/1/1">
  <metadata><name>Hoher Riffler → Edmund-Graf-Hütte</name></metadata>
  <trk><name>Hoher Riffler → Edmund-Graf-Hütte</name><trkseg>
      <trkpt lat="47.1159540" lon="10.3709570"><ele>3066.5</ele></trkpt>
      <trkpt lat="47.1156790" lon="10.3707400"><ele>3060.5</ele></trkpt>
      <trkpt lat="47.1153810" lon="10.3703130"><ele>3052.5</ele></trkpt>
      <trkpt lat="47.1154850" lon="10.3699070"><ele>3046.9</ele></trkpt>
      <trkpt lat="47.1153750" lon="10.3698290"><ele>3044.6</ele></trkpt>
      <trkpt lat="47.1156120" lon="10.3689280"><ele>3028.7</ele></trkpt>
      <trkpt lat="47.1154980" lon="10.3680240"><ele>3003.9</ele></trkpt>
      <trkpt lat="47.1156950" lon="10.3675020"><ele>2987.8</ele></trkpt>
      <trkpt lat="47.1155910" lon="10.3674220"><ele>2983.2</ele></trkpt>
      <trkpt lat="47.1155910" lon="10.3672610"><ele>2978.8</ele></trkpt>
      <trkpt lat="47.1157170" lon="10.3669820"><ele>2969.8</ele></trkpt>
      <trkpt lat="47.1156130" lon="10.3669360"><ele>2965.5</ele></trkpt>
      <trkpt lat="47.1155380" lon="10.3668100"><ele>2960.4</ele></trkpt>
      <trkpt lat="47.1155930" lon="10.3666520"><ele>2954.6</ele></trkpt>
      <trkpt lat="47.1155660" lon="10.3665320"><ele>2950.5</ele></trkpt>
      <trkpt lat="47.1155200" lon="10.3663730"><ele>2944.9</ele></trkpt>
      <trkpt lat="47.1153890" lon="10.3662930"><ele>2938.1</ele></trkpt>
      <trkpt lat="47.1154110" lon="10.3661500"><ele>2933.4</ele></trkpt>
      <trkpt lat="47.1153160" lon="10.3661370"><ele>2928.8</ele></trkpt>
      <trkpt lat="47.1152830" lon="10.3660110"><ele>2924.4</ele></trkpt>
      <trkpt lat="47.1153520" lon="10.3658610"><ele>2918.5</ele></trkpt>
      <trkpt lat="47.1153230" lon="10.3656520"><ele>2911.6</ele></trkpt>
      <trkpt lat="47.1150980" lon="10.3656480"><ele>2900.8</ele></trkpt>
      <trkpt lat="47.1149830" lon="10.3655790"><ele>2894.9</ele></trkpt>
      <trkpt lat="47.1149820" lon="10.3654770"><ele>2891.6</ele></trkpt>
      <trkpt lat="47.1148200" lon="10.3654290"><ele>2883.7</ele></trkpt>
      <trkpt lat="47.1147260" lon="10.3652790"><ele>2876.9</ele></trkpt>
      <trkpt lat="47.1147810" lon="10.3651930"><ele>2872.2</ele></trkpt>
      <trkpt lat="47.1146240" lon="10.3648390"><ele>2855.5</ele></trkpt>
      <trkpt lat="47.1142970" lon="10.3647050"><ele>2835.8</ele></trkpt>
      <trkpt lat="47.1143480" lon="10.3645250"><ele>2828.1</ele></trkpt>
      <trkpt lat="47.1142660" lon="10.3643720"><ele>2820.4</ele></trkpt>
      <trkpt lat="47.1141710" lon="10.3643770"><ele>2814.9</ele></trkpt>
      <trkpt lat="47.1139810" lon="10.3639270"><ele>2794.0</ele></trkpt>
      <trkpt lat="47.1140980" lon="10.3637070"><ele>2783.0</ele></trkpt>
      <trkpt lat="47.1139340" lon="10.3635060"><ele>2771.3</ele></trkpt>
      <trkpt lat="47.1138520" lon="10.3626960"><ele>2746.4</ele></trkpt>
      <trkpt lat="47.1133340" lon="10.3619800"><ele>2714.6</ele></trkpt>
      <trkpt lat="47.1130250" lon="10.3614560"><ele>2693.5</ele></trkpt>
      <trkpt lat="47.1129640" lon="10.3610870"><ele>2683.5</ele></trkpt>
      <trkpt lat="47.1129970" lon="10.3602470"><ele>2661.4</ele></trkpt>
      <trkpt lat="47.1129640" lon="10.3598920"><ele>2652.0</ele></trkpt>
      <trkpt lat="47.1125650" lon="10.3595970"><ele>2634.7</ele></trkpt>
      <trkpt lat="47.1123800" lon="10.3584600"><ele>2606.8</ele></trkpt>
      <trkpt lat="47.1123640" lon="10.3578840"><ele>2593.8</ele></trkpt>
      <trkpt lat="47.1123110" lon="10.3576100"><ele>2587.4</ele></trkpt>
      <trkpt lat="47.1121820" lon="10.3575390"><ele>2582.8</ele></trkpt>
      <trkpt lat="47.1121090" lon="10.3575570"><ele>2580.4</ele></trkpt>
      <trkpt lat="47.1120880" lon="10.3575000"><ele>2578.9</ele></trkpt>
      <trkpt lat="47.1120000" lon="10.3574260"><ele>2575.6</ele></trkpt>
      <trkpt lat="47.1118850" lon="10.3573870"><ele>2571.7</ele></trkpt>
      <trkpt lat="47.1118410" lon="10.3574930"><ele>2568.9</ele></trkpt>
      <trkpt lat="47.1117930" lon="10.3574420"><ele>2566.9</ele></trkpt>
      <trkpt lat="47.1117720" lon="10.3574950"><ele>2565.5</ele></trkpt>
      <trkpt lat="47.1115730" lon="10.3572620"><ele>2558.0</ele></trkpt>
      <trkpt lat="47.1115130" lon="10.3572710"><ele>2556.2</ele></trkpt>
      <trkpt lat="47.1114840" lon="10.3574570"><ele>2552.4</ele></trkpt>
      <trkpt lat="47.1114280" lon="10.3575960"><ele>2549.2</ele></trkpt>
      <trkpt lat="47.1112850" lon="10.3573400"><ele>2542.7</ele></trkpt>
      <trkpt lat="47.1111740" lon="10.3570320"><ele>2535.8</ele></trkpt>
      <trkpt lat="47.1111140" lon="10.3571470"><ele>2532.9</ele></trkpt>
      <trkpt lat="47.1110080" lon="10.3571790"><ele>2529.8</ele></trkpt>
      <trkpt lat="47.1109990" lon="10.3572540"><ele>2528.3</ele></trkpt>
      <trkpt lat="47.1109450" lon="10.3572820"><ele>2526.6</ele></trkpt>
      <trkpt lat="47.1109160" lon="10.3573350"><ele>2525.3</ele></trkpt>
      <trkpt lat="47.1108280" lon="10.3572810"><ele>2522.5</ele></trkpt>
      <trkpt lat="47.1106570" lon="10.3569770"><ele>2514.7</ele></trkpt>
      <trkpt lat="47.1105940" lon="10.3567120"><ele>2509.8</ele></trkpt>
      <trkpt lat="47.1104520" lon="10.3567230"><ele>2506.8</ele></trkpt>
      <trkpt lat="47.1103330" lon="10.3565530"><ele>2503.1</ele></trkpt>
      <trkpt lat="47.1102140" lon="10.3566030"><ele>2500.4</ele></trkpt>
      <trkpt lat="47.1101860" lon="10.3566880"><ele>2499.0</ele></trkpt>
      <trkpt lat="47.1101570" lon="10.3566620"><ele>2498.3</ele></trkpt>
      <trkpt lat="47.1100960" lon="10.3563700"><ele>2493.8</ele></trkpt>
      <trkpt lat="47.1100530" lon="10.3563430"><ele>2492.7</ele></trkpt>
      <trkpt lat="47.1099120" lon="10.3565370"><ele>2488.5</ele></trkpt>
      <trkpt lat="47.1097520" lon="10.3568430"><ele>2482.8</ele></trkpt>
      <trkpt lat="47.1097230" lon="10.3571340"><ele>2478.4</ele></trkpt>
      <trkpt lat="47.1096770" lon="10.3573200"><ele>2475.5</ele></trkpt>
      <trkpt lat="47.1095760" lon="10.3574280"><ele>2472.8</ele></trkpt>
      <trkpt lat="47.1094170" lon="10.3574880"><ele>2469.8</ele></trkpt>
      <trkpt lat="47.1093560" lon="10.3574140"><ele>2468.4</ele></trkpt>
      <trkpt lat="47.1093110" lon="10.3574640"><ele>2467.4</ele></trkpt>
      <trkpt lat="47.1091830" lon="10.3575210"><ele>2464.9</ele></trkpt>
      <trkpt lat="47.1091370" lon="10.3575940"><ele>2463.7</ele></trkpt>
      <trkpt lat="47.1090410" lon="10.3576120"><ele>2462.0</ele></trkpt>
      <trkpt lat="47.1089920" lon="10.3577620"><ele>2459.9</ele></trkpt>
      <trkpt lat="47.1089200" lon="10.3578420"><ele>2458.3</ele></trkpt>
      <trkpt lat="47.1086970" lon="10.3577440"><ele>2454.1</ele></trkpt>
      <trkpt lat="47.1084910" lon="10.3577670"><ele>2450.4</ele></trkpt>
      <trkpt lat="47.1084070" lon="10.3577410"><ele>2448.8</ele></trkpt>
      <trkpt lat="47.1082720" lon="10.3577840"><ele>2446.3</ele></trkpt>
      <trkpt lat="47.1082060" lon="10.3576910"><ele>2444.6</ele></trkpt>
      <trkpt lat="47.1081430" lon="10.3577070"><ele>2443.5</ele></trkpt>
      <trkpt lat="47.1080810" lon="10.3575950"><ele>2441.7</ele></trkpt>
      <trkpt lat="47.1079790" lon="10.3575960"><ele>2439.8</ele></trkpt>
      <trkpt lat="47.1079200" lon="10.3575500"><ele>2438.3</ele></trkpt>
      <trkpt lat="47.1078950" lon="10.3572730"><ele>2434.2</ele></trkpt>
      <trkpt lat="47.1078560" lon="10.3571890"><ele>2432.7</ele></trkpt>
      <trkpt lat="47.1077620" lon="10.3571140"><ele>2430.3</ele></trkpt>
      <trkpt lat="47.1077950" lon="10.3569550"><ele>2427.9</ele></trkpt>
      <trkpt lat="47.1077510" lon="10.3568780"><ele>2426.4</ele></trkpt>
      <trkpt lat="47.1076450" lon="10.3567820"><ele>2423.7</ele></trkpt>
      <trkpt lat="47.1075380" lon="10.3567930"><ele>2421.3</ele></trkpt>
      <trkpt lat="47.1073970" lon="10.3567300"><ele>2418.1</ele></trkpt>
      <trkpt lat="47.1074050" lon="10.3565070"><ele>2414.8</ele></trkpt>
      <trkpt lat="47.1073750" lon="10.3564260"><ele>2413.4</ele></trkpt>
      <trkpt lat="47.1073220" lon="10.3563880"><ele>2412.1</ele></trkpt>
      <trkpt lat="47.1071620" lon="10.3563970"><ele>2408.6</ele></trkpt>
      <trkpt lat="47.1070750" lon="10.3565910"><ele>2405.2</ele></trkpt>
      <trkpt lat="47.1070290" lon="10.3565560"><ele>2404.1</ele></trkpt>
      <trkpt lat="47.1069910" lon="10.3565990"><ele>2403.0</ele></trkpt>
      <trkpt lat="47.1069490" lon="10.3565630"><ele>2402.0</ele></trkpt>
      <trkpt lat="47.1069060" lon="10.3563220"><ele>2399.0</ele></trkpt>
      <trkpt lat="47.1067530" lon="10.3561670"><ele>2396.1</ele></trkpt>
      <trkpt lat="47.1066530" lon="10.3561530"><ele>2394.5</ele></trkpt>
      <trkpt lat="47.1065880" lon="10.3562670"><ele>2392.9</ele></trkpt>
      <trkpt lat="47.1065770" lon="10.3563370"><ele>2392.2</ele></trkpt>
      <trkpt lat="47.1066180" lon="10.3564700"><ele>2390.6</ele></trkpt>
      <trkpt lat="47.1066080" lon="10.3565270"><ele>2390.0</ele></trkpt>
      <trkpt lat="47.1065020" lon="10.3564410"><ele>2388.1</ele></trkpt>
      <trkpt lat="47.1064630" lon="10.3566110"><ele>2386.1</ele></trkpt>
      <trkpt lat="47.1064200" lon="10.3565800"><ele>2385.4</ele></trkpt>
      <trkpt lat="47.1063260" lon="10.3564040"><ele>2383.0</ele></trkpt>
      <trkpt lat="47.1062060" lon="10.3562530"><ele>2380.5</ele></trkpt>
      <trkpt lat="47.1061870" lon="10.3562840"><ele>2380.1</ele></trkpt>
      <trkpt lat="47.1061310" lon="10.3562340"><ele>2379.0</ele></trkpt>
      <trkpt lat="47.1060020" lon="10.3559850"><ele>2375.7</ele></trkpt>
      <trkpt lat="47.1059810" lon="10.3559850"><ele>2375.3</ele></trkpt>
      <trkpt lat="47.1059670" lon="10.3558340"><ele>2373.7</ele></trkpt>
  </trkseg></trk>
</gpx>